{"type": "FeatureCollection", "features": [{"type": "Feature", "id": "BzhJzdAGARk", "properties": {"id": "BzhJzdAGARk", "name": "Gihango", "parent": "sFGfRP4wPqe"}, "geometry": {"type": "Point", "coordinates": [0.0, 0.0]}}, {"type": "Feature", "id": "CSiOPKW1OQP", "properties": {"id": "CSiOPKW1OQP", "name": "Karama (Nyagatare)", "parent": "JVpVNtso1j1"}, "geometry": {"type": "Point", "coordinates": [0.0, 0.0]}}, {"type": "Feature", "id": "EritxSJ4SVG", "properties": {"id": "EritxSJ4SVG", "name": "Kabare", "parent": "OmudJVpFUAM"}, "geometry": {"type": "Point", "coordinates": [0.0, 0.0]}}, {"type": "Feature", "id": "Fczy0xwaJSy", "properties": {"id": "Fczy0xwaJSy", "name": "Bugeshi", "parent": "KMmYr3zS8A6"}, "geometry": {"type": "Point", "coordinates": [0.0, 0.0]}}, {"type": "Feature", "id": "Gu5PQzqP3oc", "properties": {"id": "Gu5PQzqP3oc", "name": "Macuba", "parent": "o1WEnRMOFGo"}, "geometry": {"type": "Point", "coordinates": [0.0, 0.0]}}, {"type": "Feature", "id": "H8Bdog6Cimd", "properties": {"id": "H8Bdog6Cimd", "name": "Gahara", "parent": "XA36D16QMFo"}, "geometry": {"type": "Point", "coordinates": [0.0, 0.0]}}, {"type": "Feature", "id": "Mfq6tTTiEPp", "properties": {"id": "Mfq6tTTiEPp", "name": "Kaniga", "parent": "uhjJRQ5PIKE"}, "geometry": {"type": "Point", "coordinates": [0.0, 0.0]}}, {"type": "Feature", "id": "PSm1jSs02Hn", "properties": {"id": "PSm1jSs02Hn", "name": "NYANGE", "parent": "CmrpITNSnZH"}, "geometry": {"type": "Point", "coordinates": [0.0, 0.0]}}, {"type": "Feature", "id": "RJmYYd950ix", "properties": {"id": "RJmYYd950ix", "name": "Jomba", "parent": "jlu5IXTU2Pg"}, "geometry": {"type": "Point", "coordinates": [0.0, 0.0]}}, {"type": "Feature", "id": "RYCjVDOerMI", "properties": {"id": "RYCjVDOerMI", "name": "Busasamana", "parent": "hP84KHLWTST"}, "geometry": {"type": "Point", "coordinates": [0.0, 0.0]}}, {"type": "Feature", "id": "S66uMxb4hP3", "properties": {"id": "S66uMxb4hP3", "name": "Rukomo", "parent": "uhjJRQ5PIKE"}, "geometry": {"type": "Point", "coordinates": [0.0, 0.0]}}, {"type": "Feature", "id": "SICKqXFy5zu", "properties": {"id": "SICKqXFy5zu", "name": "Musambira", "parent": "vYchbWPRyrs"}, "geometry": {"type": "Point", "coordinates": [0.0, 0.0]}}, {"type": "Feature", "id": "U6HqChzWzU8", "properties": {"id": "U6HqChzWzU8", "name": "Gatsata", "parent": "GGehit0WNxN"}, "geometry": {"type": "Point", "coordinates": [0.0, 0.0]}}, {"type": "Feature", "id": "UWJgiFtmGUm", "properties": {"id": "UWJgiFtmGUm", "name": "Mbuye", "parent": "p3YyC2h94pE"}, "geometry": {"type": "Point", "coordinates": [0.0, 0.0]}}, {"type": "Feature", "id": "VhiORexDJ7E", "properties": {"id": "VhiORexDJ7E", "name": "Fumbwe", "parent": "TJDjWvjv7Eq"}, "geometry": {"type": "Point", "coordinates": [0.0, 0.0]}}, {"type": "Feature", "id": "XFK52TRw4ii", "properties": {"id": "XFK52TRw4ii", "name": "Nyakabanda", "parent": "TIYhjdOa2pb"}, "geometry": {"type": "Point", "coordinates": [0.0, 0.0]}}, {"type": "Feature", "id": "a2W5XUyx7Eo", "properties": {"id": "a2W5XUyx7Eo", "name": "Nemba ", "parent": "hgg0EGoK6s1"}, "geometry": {"type": "Point", "coordinates": [0.0, 0.0]}}, {"type": "Feature", "id": "aBlz1yzmlY9", "properties": {"id": "aBlz1yzmlY9", "name": "Mukamira", "parent": "jlu5IXTU2Pg"}, "geometry": {"type": "Point", "coordinates": [0.0, 0.0]}}, {"type": "Feature", "id": "aTaNnneuUUB", "properties": {"id": "aTaNnneuUUB", "name": "Ruhunde", "parent": "ncVHO9PKoOh"}, "geometry": {"type": "Point", "coordinates": [0.0, 0.0]}}, {"type": "Feature", "id": "aYFD5gH9NB8", "properties": {"id": "aYFD5gH9NB8", "name": "Gitambi", "parent": "PE2MxtJPBEX"}, "geometry": {"type": "Point", "coordinates": [0.0, 0.0]}}, {"type": "Feature", "id": "aZzxcPdgQuq", "properties": {"id": "aZzxcPdgQuq", "name": "Muyongwe ", "parent": "CtLpMRzBrwD"}, "geometry": {"type": "Point", "coordinates": [0.0, 0.0]}}, {"type": "Feature", "id": "ajXhrgAmnVp", "properties": {"id": "ajXhrgAmnVp", "name": "Muhoza", "parent": "Gthhpk9cTe5"}, "geometry": {"type": "Point", "coordinates": [0.0, 0.0]}}, {"type": "Feature", "id": "ankVDgUcOp4", "properties": {"id": "ankVDgUcOp4", "name": "Cyuve", "parent": "Gthhpk9cTe5"}, "geometry": {"type": "Point", "coordinates": [0.0, 0.0]}}, {"type": "Feature", "id": "apgxN8zE4l8", "properties": {"id": "apgxN8zE4l8", "name": "Ruganda", "parent": "zbvFqVMWgzq"}, "geometry": {"type": "Point", "coordinates": [0.0, 0.0]}}, {"type": "Feature", "id": "avZFIgp2nzH", "properties": {"id": "avZFIgp2nzH", "name": "Gatare", "parent": "NbiuPoMmEoZ"}, "geometry": {"type": "Point", "coordinates": [0.0, 0.0]}}, {"type": "Feature", "id": "b0TlmlPwBbQ", "properties": {"id": "b0TlmlPwBbQ", "name": "Kirehe", "parent": "XA36D16QMFo"}, "geometry": {"type": "Point", "coordinates": [0.0, 0.0]}}, {"type": "Feature", "id": "b1eGeeW9sFE", "properties": {"id": "b1eGeeW9sFE", "name": "Kibangu", "parent": "hruRZrf7twh"}, "geometry": {"type": "Point", "coordinates": [0.0, 0.0]}}, {"type": "Feature", "id": "b5eOoI2EOKD", "properties": {"id": "b5eOoI2EOKD", "name": "GATUNDA", "parent": "JVpVNtso1j1"}, "geometry": {"type": "Point", "coordinates": [0.0, 0.0]}}, {"type": "Feature", "id": "b8kEv5rODhc", "properties": {"id": "b8kEv5rODhc", "name": "Kazo", "parent": "CotNU8eAEZD"}, "geometry": {"type": "Point", "coordinates": [0.0, 0.0]}}, {"type": "Feature", "id": "bAnRvcCyY8r", "properties": {"id": "bAnRvcCyY8r", "name": "Giheke", "parent": "YoFjBm3qOTx"}, "geometry": {"type": "Point", "coordinates": [0.0, 0.0]}}, {"type": "Feature", "id": "bBeBDLIfL7u", "properties": {"id": "bBeBDLIfL7u", "name": "Giti", "parent": "uhjJRQ5PIKE"}, "geometry": {"type": "Point", "coordinates": [0.0, 0.0]}}, {"type": "Feature", "id": "bSXpYeo3DSJ", "properties": {"id": "bSXpYeo3DSJ", "name": "Gatebe", "parent": "ncVHO9PKoOh"}, "geometry": {"type": "Point", "coordinates": [0.0, 0.0]}}, {"type": "Feature", "id": "baWnfTXqIXp", "properties": {"id": "baWnfTXqIXp", "name": "Gakenke ", "parent": "hgg0EGoK6s1"}, "geometry": {"type": "Point", "coordinates": [0.0, 0.0]}}, {"type": "Feature", "id": "bkokIMDSgC4", "properties": {"id": "bkokIMDSgC4", "name": "Mwulire", "parent": "TJDjWvjv7Eq"}, "geometry": {"type": "Point", "coordinates": [0.0, 0.0]}}, {"type": "Feature", "id": "bpM1NHiUpHe", "properties": {"id": "bpM1NHiUpHe", "name": "Gishali", "parent": "TJDjWvjv7Eq"}, "geometry": {"type": "Point", "coordinates": [0.0, 0.0]}}, {"type": "Feature", "id": "bqBezud93Ou", "properties": {"id": "bqBezud93Ou", "name": "Nduba", "parent": "GGehit0WNxN"}, "geometry": {"type": "Point", "coordinates": [0.0, 0.0]}}, {"type": "Feature", "id": "c2KWG1gZZ7d", "properties": {"id": "c2KWG1gZZ7d", "name": "Rwaza", "parent": "Gthhpk9cTe5"}, "geometry": {"type": "Point", "coordinates": [0.0, 0.0]}}, {"type": "Feature", "id": "c8n1D3bPWhO", "properties": {"id": "c8n1D3bPWhO", "name": "Busanze", "parent": "w85yxpS1DaV"}, "geometry": {"type": "Point", "coordinates": [0.0, 0.0]}}, {"type": "Feature", "id": "c9ryUBE0b8l", "properties": {"id": "c9ryUBE0b8l", "name": "Muringa", "parent": "jlu5IXTU2Pg"}, "geometry": {"type": "Point", "coordinates": [0.0, 0.0]}}, {"type": "Feature", "id": "cEnnlABC5qk", "properties": {"id": "cEnnlABC5qk", "name": "Ruheru", "parent": "w85yxpS1DaV"}, "geometry": {"type": "Point", "coordinates": [0.0, 0.0]}}, {"type": "Feature", "id": "cFixxs0uwG9", "properties": {"id": "cFixxs0uwG9", "name": "Rurenge", "parent": "CotNU8eAEZD"}, "geometry": {"type": "Point", "coordinates": [0.0, 0.0]}}, {"type": "Feature", "id": "cG1H6lA6y5d", "properties": {"id": "cG1H6lA6y5d", "name": "Murunda", "parent": "sFGfRP4wPqe"}, "geometry": {"type": "Point", "coordinates": [0.0, 0.0]}}, {"type": "Feature", "id": "cINDOwngnpP", "properties": {"id": "cINDOwngnpP", "name": "Manihira", "parent": "sFGfRP4wPqe"}, "geometry": {"type": "Point", "coordinates": [0.0, 0.0]}}, {"type": "Feature", "id": "cL5JMBAYeEA", "properties": {"id": "cL5JMBAYeEA", "name": "Bukure", "parent": "uhjJRQ5PIKE"}, "geometry": {"type": "Point", "coordinates": [0.0, 0.0]}}, {"type": "Feature", "id": "cN1zETd2U7M", "properties": {"id": "cN1zETd2U7M", "name": "Cyanika", "parent": "P4eFgU1Ono1"}, "geometry": {"type": "Point", "coordinates": [0.0, 0.0]}}, {"type": "Feature", "id": "cNy8pLEFkqW", "properties": {"id": "cNy8pLEFkqW", "name": "Kigabiro", "parent": "TJDjWvjv7Eq"}, "geometry": {"type": "Point", "coordinates": [0.0, 0.0]}}, {"type": "Feature", "id": "cPq9d6xB5S1", "properties": {"id": "cPq9d6xB5S1", "name": "Twumba", "parent": "WjkCV9L9ecK"}, "geometry": {"type": "Point", "coordinates": [0.0, 0.0]}}, {"type": "Feature", "id": "cQhlmgg3nnX", "properties": {"id": "cQhlmgg3nnX", "name": "Maraba", "parent": "WZwmUL5MmQR"}, "geometry": {"type": "Point", "coordinates": [0.0, 0.0]}}, {"type": "Feature", "id": "cR1ORHKKSjH", "properties": {"id": "cR1ORHKKSjH", "name": "Nkomane", "parent": "NbiuPoMmEoZ"}, "geometry": {"type": "Point", "coordinates": [0.0, 0.0]}}, {"type": "Feature", "id": "cRi72LH1t88", "properties": {"id": "cRi72LH1t88", "name": "Nyankenke", "parent": "uhjJRQ5PIKE"}, "geometry": {"type": "Point", "coordinates": [0.0, 0.0]}}, {"type": "Feature", "id": "cUkURoOqSFN", "properties": {"id": "cUkURoOqSFN", "name": "Kagano", "parent": "o1WEnRMOFGo"}, "geometry": {"type": "Point", "coordinates": [0.0, 0.0]}}, {"type": "Feature", "id": "cYNereEFp5G", "properties": {"id": "cYNereEFp5G", "name": "Save", "parent": "OS0re4Y5ZwA"}, "geometry": {"type": "Point", "coordinates": [0.0, 0.0]}}, {"type": "Feature", "id": "cZO9576NLmH", "properties": {"id": "cZO9576NLmH", "name": "Kanama", "parent": "KMmYr3zS8A6"}, "geometry": {"type": "Point", "coordinates": [0.0, 0.0]}}, {"type": "Feature", "id": "cbqw56wBote", "properties": {"id": "cbqw56wBote", "name": "Nzige", "parent": "TJDjWvjv7Eq"}, "geometry": {"type": "Point", "coordinates": [0.0, 0.0]}}, {"type": "Feature", "id": "csHr23oMNaW", "properties": {"id": "csHr23oMNaW", "name": "Kayenzi", "parent": "vYchbWPRyrs"}, "geometry": {"type": "Point", "coordinates": [0.0, 0.0]}}, {"type": "Feature", "id": "cxrm96DZ5ys", "properties": {"id": "cxrm96DZ5ys", "name": "Gisenyi", "parent": "KMmYr3zS8A6"}, "geometry": {"type": "Point", "coordinates": [0.0, 0.0]}}, {"type": "Feature", "id": "cyeDms6pK18", "properties": {"id": "cyeDms6pK18", "name": "Kamabuye", "parent": "hDsNksdRjyK"}, "geometry": {"type": "Point", "coordinates": [0.0, 0.0]}}, {"type": "Feature", "id": "cymC1AQ7qhg", "properties": {"id": "cymC1AQ7qhg", "name": "Nyamiyaga (Gicumbi  District)", "parent": "uhjJRQ5PIKE"}, "geometry": {"type": "Point", "coordinates": [0.0, 0.0]}}, {"type": "Feature", "id": "d37t5N10KSj", "properties": {"id": "d37t5N10KSj", "name": "NDARO", "parent": "CmrpITNSnZH"}, "geometry": {"type": "Point", "coordinates": [0.0, 0.0]}}, {"type": "Feature", "id": "d6gv9Om8imG", "properties": {"id": "d6gv9Om8imG", "name": "Gahanga", "parent": "KQWAFrokM3M"}, "geometry": {"type": "Point", "coordinates": [0.0, 0.0]}}, {"type": "Feature", "id": "dACu6WqTSYK", "properties": {"id": "dACu6WqTSYK", "name": "Ruramira", "parent": "OmudJVpFUAM"}, "geometry": {"type": "Point", "coordinates": [0.0, 0.0]}}, {"type": "Feature", "id": "dCPFl1tqJX5", "properties": {"id": "dCPFl1tqJX5", "name": "Ngoma", "parent": "w85yxpS1DaV"}, "geometry": {"type": "Point", "coordinates": [0.0, 0.0]}}, {"type": "Feature", "id": "dEkKkVb83St", "properties": {"id": "dEkKkVb83St", "name": "Gitovu", "parent": "ncVHO9PKoOh"}, "geometry": {"type": "Point", "coordinates": [0.0, 0.0]}}, {"type": "Feature", "id": "dGWzQBcZDf9", "properties": {"id": "dGWzQBcZDf9", "name": "Kanombe", "parent": "KQWAFrokM3M"}, "geometry": {"type": "Point", "coordinates": [0.0, 0.0]}}, {"type": "Feature", "id": "dK5GND6Zr8f", "properties": {"id": "dK5GND6Zr8f", "name": "Gitega", "parent": "OoEtwLxlIHt"}, "geometry": {"type": "Point", "coordinates": [0.0, 0.0]}}, {"type": "Feature", "id": "dLG3ogiQkEv", "properties": {"id": "dLG3ogiQkEv", "name": "Cyabakamyi", "parent": "hP84KHLWTST"}, "geometry": {"type": "Point", "coordinates": [0.0, 0.0]}}, {"type": "Feature", "id": "dO5mVkEyPS0", "properties": {"id": "dO5mVkEyPS0", "name": "Rugabano", "parent": "YqoKpToX2RK"}, "geometry": {"type": "Point", "coordinates": [0.0, 0.0]}}, {"type": "Feature", "id": "dPfv2vnEYEk", "properties": {"id": "dPfv2vnEYEk", "name": "Gatore", "parent": "XA36D16QMFo"}, "geometry": {"type": "Point", "coordinates": [0.0, 0.0]}}, {"type": "Feature", "id": "dUk3ilQWHmG", "properties": {"id": "dUk3ilQWHmG", "name": "Ndera", "parent": "GGehit0WNxN"}, "geometry": {"type": "Point", "coordinates": [0.0, 0.0]}}, {"type": "Feature", "id": "dbN8jHRHoDu", "properties": {"id": "dbN8jHRHoDu", "name": "Busengo ", "parent": "gedstS5izDz"}, "geometry": {"type": "Point", "coordinates": [0.0, 0.0]}}, {"type": "Feature", "id": "dd2UVBbiJp6", "properties": {"id": "dd2UVBbiJp6", "name": "Mukindo", "parent": "mJRl6j7RPUp"}, "geometry": {"type": "Point", "coordinates": [0.0, 0.0]}}, {"type": "Feature", "id": "dgcwyLu6Lsm", "properties": {"id": "dgcwyLu6Lsm", "name": "NGOMA", "parent": "vJqfrzsJe3D"}, "geometry": {"type": "Point", "coordinates": [0.0, 0.0]}}, {"type": "Feature", "id": "dxpTd93bjuK", "properties": {"id": "dxpTd93bjuK", "name": "Butaro", "parent": "ncVHO9PKoOh"}, "geometry": {"type": "Point", "coordinates": [0.0, 0.0]}}, {"type": "Feature", "id": "dz18ro1ORZq", "properties": {"id": "dz18ro1ORZq", "name": "Mutete", "parent": "uhjJRQ5PIKE"}, "geometry": {"type": "Point", "coordinates": [0.0, 0.0]}}, {"type": "Feature", "id": "e00An1dcaw7", "properties": {"id": "e00An1dcaw7", "name": "Shangi", "parent": "TiRTUBf0XSn"}, "geometry": {"type": "Point", "coordinates": [0.0, 0.0]}}, {"type": "Feature", "id": "e7sKtjqVNtz", "properties": {"id": "e7sKtjqVNtz", "name": "Murundi (Kayonza District)", "parent": "b06Nmatvw3f"}, "geometry": {"type": "Point", "coordinates": [0.0, 0.0]}}, {"type": "Feature", "id": "eFybvWntDN2", "properties": {"id": "eFybvWntDN2", "name": "Gashaki", "parent": "Gthhpk9cTe5"}, "geometry": {"type": "Point", "coordinates": [0.0, 0.0]}}, {"type": "Feature", "id": "eKYS6U9Q5z0", "properties": {"id": "eKYS6U9Q5z0", "name": "Muganza", "parent": "mJRl6j7RPUp"}, "geometry": {"type": "Point", "coordinates": [0.0, 0.0]}}, {"type": "Feature", "id": "eNVswaf6uDk", "properties": {"id": "eNVswaf6uDk", "name": "Rusatira", "parent": "WZwmUL5MmQR"}, "geometry": {"type": "Point", "coordinates": [0.0, 0.0]}}, {"type": "Feature", "id": "eRObJe2EJ5c", "properties": {"id": "eRObJe2EJ5c", "name": "Gataraga", "parent": "Gthhpk9cTe5"}, "geometry": {"type": "Point", "coordinates": [0.0, 0.0]}}, {"type": "Feature", "id": "eUyPvRHGvxt", "properties": {"id": "eUyPvRHGvxt", "name": "Ndego", "parent": "OmudJVpFUAM"}, "geometry": {"type": "Point", "coordinates": [0.0, 0.0]}}, {"type": "Feature", "id": "ebBxklFIZCw", "properties": {"id": "ebBxklFIZCw", "name": "Gasaka", "parent": "P4eFgU1Ono1"}, "geometry": {"type": "Point", "coordinates": [0.0, 0.0]}}, {"type": "Feature", "id": "edPtXyNxQkW", "properties": {"id": "edPtXyNxQkW", "name": "Rusebeya", "parent": "sFGfRP4wPqe"}, "geometry": {"type": "Point", "coordinates": [0.0, 0.0]}}, {"type": "Feature", "id": "ee0qJtgSRPr", "properties": {"id": "ee0qJtgSRPr", "name": "Cyahinda", "parent": "w85yxpS1DaV"}, "geometry": {"type": "Point", "coordinates": [0.0, 0.0]}}, {"type": "Feature", "id": "emMpRKQSqMp", "properties": {"id": "emMpRKQSqMp", "name": "Mubuga", "parent": "WjkCV9L9ecK"}, "geometry": {"type": "Point", "coordinates": [0.0, 0.0]}}, {"type": "Feature", "id": "epFbD7Z1oPe", "properties": {"id": "epFbD7Z1oPe", "name": "Nyarubuye", "parent": "XA36D16QMFo"}, "geometry": {"type": "Point", "coordinates": [0.0, 0.0]}}, {"type": "Feature", "id": "et8g0IBrc8F", "properties": {"id": "et8g0IBrc8F", "name": "Mukarange", "parent": "uhjJRQ5PIKE"}, "geometry": {"type": "Point", "coordinates": [0.0, 0.0]}}, {"type": "Feature", "id": "eyVFUUTyItn", "properties": {"id": "eyVFUUTyItn", "name": "Bushenge", "parent": "TiRTUBf0XSn"}, "geometry": {"type": "Point", "coordinates": [0.0, 0.0]}}, {"type": "Feature", "id": "f47QLAhV89w", "properties": {"id": "f47QLAhV89w", "name": "Gashari", "parent": "zbvFqVMWgzq"}, "geometry": {"type": "Point", "coordinates": [0.0, 0.0]}}, {"type": "Feature", "id": "f4DoZNb4MnD", "properties": {"id": "f4DoZNb4MnD", "name": "Nyamirama", "parent": "OmudJVpFUAM"}, "geometry": {"type": "Point", "coordinates": [0.0, 0.0]}}, {"type": "Feature", "id": "fCSgXYlzcz4", "properties": {"id": "fCSgXYlzcz4", "name": "MATYAZO", "parent": "OFUSA2nbeXd"}, "geometry": {"type": "Point", "coordinates": [0.0, 0.0]}}, {"type": "Feature", "id": "fP6dw5Jj3Lm", "properties": {"id": "fP6dw5Jj3Lm", "name": "Rwimbogo (Gatsibo District)", "parent": "zzX5TYBI1ON"}, "geometry": {"type": "Point", "coordinates": [0.0, 0.0]}}, {"type": "Feature", "id": "fXzEUohuDUx", "properties": {"id": "fXzEUohuDUx", "name": "Kiyumba", "parent": "hruRZrf7twh"}, "geometry": {"type": "Point", "coordinates": [0.0, 0.0]}}, {"type": "Feature", "id": "fYOg0gl6zkA", "properties": {"id": "fYOg0gl6zkA", "name": "Murambi (Gatsibo District)", "parent": "zzX5TYBI1ON"}, "geometry": {"type": "Point", "coordinates": [0.0, 0.0]}}, {"type": "Feature", "id": "fegtwyJ639P", "properties": {"id": "fegtwyJ639P", "name": "MUHORORO", "parent": "CmrpITNSnZH"}, "geometry": {"type": "Point", "coordinates": [0.0, 0.0]}}, {"type": "Feature", "id": "fgg4hmcLCXk", "properties": {"id": "fgg4hmcLCXk", "name": "Gacurabwenge", "parent": "vYchbWPRyrs"}, "geometry": {"type": "Point", "coordinates": [0.0, 0.0]}}, {"type": "Feature", "id": "fl9lYqEnnTv", "properties": {"id": "fl9lYqEnnTv", "name": "Remera (Ngoma  District)", "parent": "CotNU8eAEZD"}, "geometry": {"type": "Point", "coordinates": [0.0, 0.0]}}, {"type": "Feature", "id": "flfI7HaIPsT", "properties": {"id": "flfI7HaIPsT", "name": "Kimihurura", "parent": "GGehit0WNxN"}, "geometry": {"type": "Point", "coordinates": [0.0, 0.0]}}, {"type": "Feature", "id": "foPj88q0Zsp", "properties": {"id": "foPj88q0Zsp", "name": "Shyogwe", "parent": "MhdyPFz3alM"}, "geometry": {"type": "Point", "coordinates": [0.0, 0.0]}}, {"type": "Feature", "id": "fqNROhxe4sb", "properties": {"id": "fqNROhxe4sb", "name": "Tumba", "parent": "WZwmUL5MmQR"}, "geometry": {"type": "Point", "coordinates": [0.0, 0.0]}}, {"type": "Feature", "id": "fwxrPPlhGdS", "properties": {"id": "fwxrPPlhGdS", "name": "Kinihira (Ruhango)", "parent": "A0xbotZxXnk"}, "geometry": {"type": "Point", "coordinates": [0.0, 0.0]}}, {"type": "Feature", "id": "fx6SWrIEllO", "properties": {"id": "fx6SWrIEllO", "name": "Gashanda", "parent": "CotNU8eAEZD"}, "geometry": {"type": "Point", "coordinates": [0.0, 0.0]}}, {"type": "Feature", "id": "fxPDsvMEz2S", "properties": {"id": "fxPDsvMEz2S", "name": "Mwendo", "parent": "A0xbotZxXnk"}, "geometry": {"type": "Point", "coordinates": [0.0, 0.0]}}, {"type": "Feature", "id": "fyvsWELcvyw", "properties": {"id": "fyvsWELcvyw", "name": "Zaza", "parent": "CotNU8eAEZD"}, "geometry": {"type": "Point", "coordinates": [0.0, 0.0]}}, {"type": "Feature", "id": "g4tRm1SCbmh", "properties": {"id": "g4tRm1SCbmh", "name": "Nkombo", "parent": "YoFjBm3qOTx"}, "geometry": {"type": "Point", "coordinates": [0.0, 0.0]}}, {"type": "Feature", "id": "g5fnM8E44rS", "properties": {"id": "g5fnM8E44rS", "name": "Rwaniro", "parent": "WZwmUL5MmQR"}, "geometry": {"type": "Point", "coordinates": [0.0, 0.0]}}, {"type": "Feature", "id": "gDeQ9ElY42U", "properties": {"id": "gDeQ9ElY42U", "name": "Mukura", "parent": "WZwmUL5MmQR"}, "geometry": {"type": "Point", "coordinates": [0.0, 0.0]}}, {"type": "Feature", "id": "gEz7eBf9uLf", "properties": {"id": "gEz7eBf9uLf", "name": "Matimba", "parent": "x3lkZeS1aqt"}, "geometry": {"type": "Point", "coordinates": [0.0, 0.0]}}, {"type": "Feature", "id": "gKUskWqOXHJ", "properties": {"id": "gKUskWqOXHJ", "name": "Bugarama", "parent": "PE2MxtJPBEX"}, "geometry": {"type": "Point", "coordinates": [0.0, 0.0]}}, {"type": "Feature", "id": "gP1Hq2AVElN", "properties": {"id": "gP1Hq2AVElN", "name": "Kagarama", "parent": "KQWAFrokM3M"}, "geometry": {"type": "Point", "coordinates": [0.0, 0.0]}}, {"type": "Feature", "id": "gRa6az5Yf8O", "properties": {"id": "gRa6az5Yf8O", "name": "Gikonko", "parent": "OS0re4Y5ZwA"}, "geometry": {"type": "Point", "coordinates": [0.0, 0.0]}}, {"type": "Feature", "id": "gYMnULoNBrC", "properties": {"id": "gYMnULoNBrC", "name": "Kamembe", "parent": "YoFjBm3qOTx"}, "geometry": {"type": "Point", "coordinates": [0.0, 0.0]}}, {"type": "Feature", "id": "ghGhjXGQXWV", "properties": {"id": "ghGhjXGQXWV", "name": "Kagogo", "parent": "ncVHO9PKoOh"}, "geometry": {"type": "Point", "coordinates": [0.0, 0.0]}}, {"type": "Feature", "id": "gj9yhNBwKMS", "properties": {"id": "gj9yhNBwKMS", "name": "Mwiri", "parent": "b06Nmatvw3f"}, "geometry": {"type": "Point", "coordinates": [0.0, 0.0]}}, {"type": "Feature", "id": "gmIppHg2i3O", "properties": {"id": "gmIppHg2i3O", "name": "Manyagiro", "parent": "uhjJRQ5PIKE"}, "geometry": {"type": "Point", "coordinates": [0.0, 0.0]}}, {"type": "Feature", "id": "gqULdroxFv1", "properties": {"id": "gqULdroxFv1", "name": "Nyabitekeri", "parent": "TiRTUBf0XSn"}, "geometry": {"type": "Point", "coordinates": [0.0, 0.0]}}, {"type": "Feature", "id": "guBubj809mz", "properties": {"id": "guBubj809mz", "name": "Mugano", "parent": "NbiuPoMmEoZ"}, "geometry": {"type": "Point", "coordinates": [0.0, 0.0]}}, {"type": "Feature", "id": "h0C1S10Qmp0", "properties": {"id": "h0C1S10Qmp0", "name": "Jenda", "parent": "jlu5IXTU2Pg"}, "geometry": {"type": "Point", "coordinates": [0.0, 0.0]}}, {"type": "Feature", "id": "hBAFCwMiqlZ", "properties": {"id": "hBAFCwMiqlZ", "name": "Kibirizi", "parent": "mJRl6j7RPUp"}, "geometry": {"type": "Point", "coordinates": [0.0, 0.0]}}, {"type": "Feature", "id": "hIXl2y9MizJ", "properties": {"id": "hIXl2y9MizJ", "name": "Nyakiriba", "parent": "KMmYr3zS8A6"}, "geometry": {"type": "Point", "coordinates": [0.0, 0.0]}}, {"type": "Feature", "id": "hNVeV6dGhMX", "properties": {"id": "hNVeV6dGhMX", "name": "Rwimbogo", "parent": "PE2MxtJPBEX"}, "geometry": {"type": "Point", "coordinates": [0.0, 0.0]}}, {"type": "Feature", "id": "hNcqG9td0OR", "properties": {"id": "hNcqG9td0OR", "name": "RUKOMO", "parent": "x3lkZeS1aqt"}, "geometry": {"type": "Point", "coordinates": [0.0, 0.0]}}, {"type": "Feature", "id": "hOD7VKqidOD", "properties": {"id": "hOD7VKqidOD", "name": "Kayumbu", "parent": "vYchbWPRyrs"}, "geometry": {"type": "Point", "coordinates": [0.0, 0.0]}}, {"type": "Feature", "id": "hdJL2N2MoCZ", "properties": {"id": "hdJL2N2MoCZ", "name": "Nyagihanga", "parent": "nr6F3HKvHu5"}, "geometry": {"type": "Point", "coordinates": [0.0, 0.0]}}, {"type": "Feature", "id": "hkUJDBQ8KeO", "properties": {"id": "hkUJDBQ8KeO", "name": "Kanjongo", "parent": "o1WEnRMOFGo"}, "geometry": {"type": "Point", "coordinates": [0.0, 0.0]}}, {"type": "Feature", "id": "hl8E5Dyrdv6", "properties": {"id": "hl8E5Dyrdv6", "name": "Musha (Rwamagana  District)", "parent": "TJDjWvjv7Eq"}, "geometry": {"type": "Point", "coordinates": [0.0, 0.0]}}, {"type": "Feature", "id": "hok5uMdOwyy", "properties": {"id": "hok5uMdOwyy", "name": "Mahembe", "parent": "o1WEnRMOFGo"}, "geometry": {"type": "Point", "coordinates": [0.0, 0.0]}}, {"type": "Feature", "id": "hpYgh09eUjy", "properties": {"id": "hpYgh09eUjy", "name": "BUSHOKI", "parent": "Uzty5ba4fGx"}, "geometry": {"type": "Point", "coordinates": [0.0, 0.0]}}, {"type": "Feature", "id": "hpl8qmh7bk7", "properties": {"id": "hpl8qmh7bk7", "name": "Ntyazo", "parent": "hP84KHLWTST"}, "geometry": {"type": "Point", "coordinates": [0.0, 0.0]}}, {"type": "Feature", "id": "hqCHnjTu5zt", "properties": {"id": "hqCHnjTu5zt", "name": "MIMURI", "parent": "JVpVNtso1j1"}, "geometry": {"type": "Point", "coordinates": [0.0, 0.0]}}, {"type": "Feature", "id": "huH2ipaYFlK", "properties": {"id": "huH2ipaYFlK", "name": "BUYOGA", "parent": "Uzty5ba4fGx"}, "geometry": {"type": "Point", "coordinates": [0.0, 0.0]}}, {"type": "Feature", "id": "hzChb43kRxC", "properties": {"id": "hzChb43kRxC", "name": "Karangazi", "parent": "x3lkZeS1aqt"}, "geometry": {"type": "Point", "coordinates": [0.0, 0.0]}}, {"type": "Feature", "id": "i14kxXYJDJI", "properties": {"id": "i14kxXYJDJI", "name": "Kinoni", "parent": "ncVHO9PKoOh"}, "geometry": {"type": "Point", "coordinates": [0.0, 0.0]}}, {"type": "Feature", "id": "i5uxdY2ljgL", "properties": {"id": "i5uxdY2ljgL", "name": "Ngoma (Huye District)", "parent": "WZwmUL5MmQR"}, "geometry": {"type": "Point", "coordinates": [0.0, 0.0]}}, {"type": "Feature", "id": "iAOpAyhpHWs", "properties": {"id": "iAOpAyhpHWs", "name": "Karama (Kamonyi District)", "parent": "vYchbWPRyrs"}, "geometry": {"type": "Point", "coordinates": [0.0, 0.0]}}, {"type": "Feature", "id": "iIANSMlK999", "properties": {"id": "iIANSMlK999", "name": "Rwankuba", "parent": "YqoKpToX2RK"}, "geometry": {"type": "Point", "coordinates": [0.0, 0.0]}}, {"type": "Feature", "id": "iLLtATJI34D", "properties": {"id": "iLLtATJI34D", "name": "Kamubuga ", "parent": "hgg0EGoK6s1"}, "geometry": {"type": "Point", "coordinates": [0.0, 0.0]}}, {"type": "Feature", "id": "ifh1EuMK1Ns", "properties": {"id": "ifh1EuMK1Ns", "name": "Karenge", "parent": "TJDjWvjv7Eq"}, "geometry": {"type": "Point", "coordinates": [0.0, 0.0]}}, {"type": "Feature", "id": "ijIsHYsjjv7", "properties": {"id": "ijIsHYsjjv7", "name": "Rwezamenyo", "parent": "TIYhjdOa2pb"}, "geometry": {"type": "Point", "coordinates": [0.0, 0.0]}}, {"type": "Feature", "id": "iocII661cDQ", "properties": {"id": "iocII661cDQ", "name": "Gitoki", "parent": "zzX5TYBI1ON"}, "geometry": {"type": "Point", "coordinates": [0.0, 0.0]}}, {"type": "Feature", "id": "irzxiHLhx9S", "properties": {"id": "irzxiHLhx9S", "name": "Gasange", "parent": "zzX5TYBI1ON"}, "geometry": {"type": "Point", "coordinates": [0.0, 0.0]}}, {"type": "Feature", "id": "isT52GoHoPq", "properties": {"id": "isT52GoHoPq", "name": "Kigoma (Huye District)", "parent": "WZwmUL5MmQR"}, "geometry": {"type": "Point", "coordinates": [0.0, 0.0]}}, {"type": "Feature", "id": "it0yZtReGQu", "properties": {"id": "it0yZtReGQu", "name": "SHYORONGI", "parent": "vJqfrzsJe3D"}, "geometry": {"type": "Point", "coordinates": [0.0, 0.0]}}, {"type": "Feature", "id": "ivk73w9rKGf", "properties": {"id": "ivk73w9rKGf", "name": "Rugerero", "parent": "KMmYr3zS8A6"}, "geometry": {"type": "Point", "coordinates": [0.0, 0.0]}}, {"type": "Feature", "id": "iwNKRvJykJP", "properties": {"id": "iwNKRvJykJP", "name": "Kimonyi", "parent": "Gthhpk9cTe5"}, "geometry": {"type": "Point", "coordinates": [0.0, 0.0]}}, {"type": "Feature", "id": "ixWgcZ7iCw4", "properties": {"id": "ixWgcZ7iCw4", "name": "Musenyi", "parent": "hDsNksdRjyK"}, "geometry": {"type": "Point", "coordinates": [0.0, 0.0]}}, {"type": "Feature", "id": "j4TNGAyH1Ph", "properties": {"id": "j4TNGAyH1Ph", "name": "Muhanga", "parent": "MhdyPFz3alM"}, "geometry": {"type": "Point", "coordinates": [0.0, 0.0]}}, {"type": "Feature", "id": "j82mnchW50s", "properties": {"id": "j82mnchW50s", "name": "Rushaki", "parent": "uhjJRQ5PIKE"}, "geometry": {"type": "Point", "coordinates": [0.0, 0.0]}}, {"type": "Feature", "id": "j9KDoDKDU3S", "properties": {"id": "j9KDoDKDU3S", "name": "Bumbogo", "parent": "GGehit0WNxN"}, "geometry": {"type": "Point", "coordinates": [0.0, 0.0]}}, {"type": "Feature", "id": "jGWrmx6coLq", "properties": {"id": "jGWrmx6coLq", "name": "GATUMBA", "parent": "CmrpITNSnZH"}, "geometry": {"type": "Point", "coordinates": [0.0, 0.0]}}, {"type": "Feature", "id": "jI2NWFymyi4", "properties": {"id": "jI2NWFymyi4", "name": "Jarama", "parent": "CotNU8eAEZD"}, "geometry": {"type": "Point", "coordinates": [0.0, 0.0]}}, {"type": "Feature", "id": "jTpfU4b3RoI", "properties": {"id": "jTpfU4b3RoI", "name": "Kacyiru", "parent": "GGehit0WNxN"}, "geometry": {"type": "Point", "coordinates": [0.0, 0.0]}}, {"type": "Feature", "id": "jY19XLX5phz", "properties": {"id": "jY19XLX5phz", "name": "Mukingo", "parent": "hP84KHLWTST"}, "geometry": {"type": "Point", "coordinates": [0.0, 0.0]}}, {"type": "Feature", "id": "jZAlCnFT5s7", "properties": {"id": "jZAlCnFT5s7", "name": "Nyagisozi", "parent": "hP84KHLWTST"}, "geometry": {"type": "Point", "coordinates": [0.0, 0.0]}}, {"type": "Feature", "id": "jZlT34bHnjr", "properties": {"id": "jZlT34bHnjr", "name": "Gacaca", "parent": "Gthhpk9cTe5"}, "geometry": {"type": "Point", "coordinates": [0.0, 0.0]}}, {"type": "Feature", "id": "jc3e7Xz3gXj", "properties": {"id": "jc3e7Xz3gXj", "name": "Rutare", "parent": "uhjJRQ5PIKE"}, "geometry": {"type": "Point", "coordinates": [0.0, 0.0]}}, {"type": "Feature", "id": "jf07yU5jZeE", "properties": {"id": "jf07yU5jZeE", "name": "Kinigi", "parent": "Gthhpk9cTe5"}, "geometry": {"type": "Point", "coordinates": [0.0, 0.0]}}, {"type": "Feature", "id": "jh4uqov5gva", "properties": {"id": "jh4uqov5gva", "name": "Rwabicuma", "parent": "hP84KHLWTST"}, "geometry": {"type": "Point", "coordinates": [0.0, 0.0]}}, {"type": "Feature", "id": "jkmrAfAaeLb", "properties": {"id": "jkmrAfAaeLb", "name": "Gahunga", "parent": "ncVHO9PKoOh"}, "geometry": {"type": "Point", "coordinates": [0.0, 0.0]}}, {"type": "Feature", "id": "jlVitdnr2qA", "properties": {"id": "jlVitdnr2qA", "name": "Cyanika (Burera  District)", "parent": "ncVHO9PKoOh"}, "geometry": {"type": "Point", "coordinates": [0.0, 0.0]}}, {"type": "Feature", "id": "jtWfocolPSj", "properties": {"id": "jtWfocolPSj", "name": "Musange", "parent": "NbiuPoMmEoZ"}, "geometry": {"type": "Point", "coordinates": [0.0, 0.0]}}, {"type": "Feature", "id": "k1ZrOxR5rhC", "properties": {"id": "k1ZrOxR5rhC", "name": "Rukoma", "parent": "vYchbWPRyrs"}, "geometry": {"type": "Point", "coordinates": [0.0, 0.0]}}, {"type": "Feature", "id": "k4ZkKR7qx0r", "properties": {"id": "k4ZkKR7qx0r", "name": "Nyakabuye", "parent": "PE2MxtJPBEX"}, "geometry": {"type": "Point", "coordinates": [0.0, 0.0]}}, {"type": "Feature", "id": "k6nvvjinOjC", "properties": {"id": "k6nvvjinOjC", "name": "Kinazi (Ruhango  District)", "parent": "p3YyC2h94pE"}, "geometry": {"type": "Point", "coordinates": [0.0, 0.0]}}, {"type": "Feature", "id": "k9ndnd58jHe", "properties": {"id": "k9ndnd58jHe", "name": "Mwogo", "parent": "hDsNksdRjyK"}, "geometry": {"type": "Point", "coordinates": [0.0, 0.0]}}, {"type": "Feature", "id": "kEYkh7lLRxp", "properties": {"id": "kEYkh7lLRxp", "name": "Kivuruga ", "parent": "hgg0EGoK6s1"}, "geometry": {"type": "Point", "coordinates": [0.0, 0.0]}}, {"type": "Feature", "id": "kGXmGepfnKi", "properties": {"id": "kGXmGepfnKi", "name": "Shyara", "parent": "hDsNksdRjyK"}, "geometry": {"type": "Point", "coordinates": [0.0, 0.0]}}, {"type": "Feature", "id": "kHIZmwxoL7D", "properties": {"id": "kHIZmwxoL7D", "name": "Busoro", "parent": "hP84KHLWTST"}, "geometry": {"type": "Point", "coordinates": [0.0, 0.0]}}, {"type": "Feature", "id": "kK2q2WY77km", "properties": {"id": "kK2q2WY77km", "name": "Katabagemu", "parent": "x3lkZeS1aqt"}, "geometry": {"type": "Point", "coordinates": [0.0, 0.0]}}, {"type": "Feature", "id": "kK5ZKZhjWjx", "properties": {"id": "kK5ZKZhjWjx", "name": "Musaza", "parent": "XA36D16QMFo"}, "geometry": {"type": "Point", "coordinates": [0.0, 0.0]}}, {"type": "Feature", "id": "kQ7hv1u6o20", "properties": {"id": "kQ7hv1u6o20", "name": "Tare", "parent": "P4eFgU1Ono1"}, "geometry": {"type": "Point", "coordinates": [0.0, 0.0]}}, {"type": "Feature", "id": "khdg1QUDyLH", "properties": {"id": "khdg1QUDyLH", "name": "Cyumba", "parent": "uhjJRQ5PIKE"}, "geometry": {"type": "Point", "coordinates": [0.0, 0.0]}}, {"type": "Feature", "id": "kmRdWkcIcZF", "properties": {"id": "kmRdWkcIcZF", "name": "Rubona", "parent": "TJDjWvjv7Eq"}, "geometry": {"type": "Point", "coordinates": [0.0, 0.0]}}, {"type": "Feature", "id": "kms6CPUlUPT", "properties": {"id": "kms6CPUlUPT", "name": "Juru", "parent": "hDsNksdRjyK"}, "geometry": {"type": "Point", "coordinates": [0.0, 0.0]}}, {"type": "Feature", "id": "kqqrzcI96Hm", "properties": {"id": "kqqrzcI96Hm", "name": "Rukumberi", "parent": "CotNU8eAEZD"}, "geometry": {"type": "Point", "coordinates": [0.0, 0.0]}}, {"type": "Feature", "id": "kqvM8YPNid1", "properties": {"id": "kqvM8YPNid1", "name": "Mudende", "parent": "KMmYr3zS8A6"}, "geometry": {"type": "Point", "coordinates": [0.0, 0.0]}}, {"type": "Feature", "id": "krKIhHngAnB", "properties": {"id": "krKIhHngAnB", "name": "Gihombo", "parent": "o1WEnRMOFGo"}, "geometry": {"type": "Point", "coordinates": [0.0, 0.0]}}, {"type": "Feature", "id": "krOvojCtccV", "properties": {"id": "krOvojCtccV", "name": "Mbazi (Nyamagabe District)", "parent": "P4eFgU1Ono1"}, "geometry": {"type": "Point", "coordinates": [0.0, 0.0]}}, {"type": "Feature", "id": "kt7OtRK2Fnr", "properties": {"id": "kt7OtRK2Fnr", "name": "Ruharambuga", "parent": "TiRTUBf0XSn"}, "geometry": {"type": "Point", "coordinates": [0.0, 0.0]}}, {"type": "Feature", "id": "kt9MizmwjNZ", "properties": {"id": "kt9MizmwjNZ", "name": "Nyagisozi (Nyaruguru District)", "parent": "w85yxpS1DaV"}, "geometry": {"type": "Point", "coordinates": [0.0, 0.0]}}, {"type": "Feature", "id": "kyMzJux4qR4", "properties": {"id": "kyMzJux4qR4", "name": "Coko ", "parent": "CtLpMRzBrwD"}, "geometry": {"type": "Point", "coordinates": [0.0, 0.0]}}, {"type": "Feature", "id": "kzXYfUCs7Yk", "properties": {"id": "kzXYfUCs7Yk", "name": "RWEMPASHA", "parent": "x3lkZeS1aqt"}, "geometry": {"type": "Point", "coordinates": [0.0, 0.0]}}, {"type": "Feature", "id": "kzcv5FCyLpP", "properties": {"id": "kzcv5FCyLpP", "name": "Huye", "parent": "WZwmUL5MmQR"}, "geometry": {"type": "Point", "coordinates": [0.0, 0.0]}}, {"type": "Feature", "id": "l2PMWEQmytV", "properties": {"id": "l2PMWEQmytV", "name": "Gihundwe", "parent": "YoFjBm3qOTx"}, "geometry": {"type": "Point", "coordinates": [0.0, 0.0]}}, {"type": "Feature", "id": "l7e25w4aDsp", "properties": {"id": "l7e25w4aDsp", "name": "Rubengera", "parent": "YqoKpToX2RK"}, "geometry": {"type": "Point", "coordinates": [0.0, 0.0]}}, {"type": "Feature", "id": "lBkVRGnvros", "properties": {"id": "lBkVRGnvros", "name": "Musheri", "parent": "x3lkZeS1aqt"}, "geometry": {"type": "Point", "coordinates": [0.0, 0.0]}}, {"type": "Feature", "id": "lEoMx8w9Adv", "properties": {"id": "lEoMx8w9Adv", "name": "Muganza (Nyaruguru District)", "parent": "w85yxpS1DaV"}, "geometry": {"type": "Point", "coordinates": [0.0, 0.0]}}, {"type": "Feature", "id": "lGNcwUpRKZJ", "properties": {"id": "lGNcwUpRKZJ", "name": "Rugarama (Gatsibo District)", "parent": "zzX5TYBI1ON"}, "geometry": {"type": "Point", "coordinates": [0.0, 0.0]}}, {"type": "Feature", "id": "lIynNPPrgwZ", "properties": {"id": "lIynNPPrgwZ", "name": "Kaduha", "parent": "NbiuPoMmEoZ"}, "geometry": {"type": "Point", "coordinates": [0.0, 0.0]}}, {"type": "Feature", "id": "lKMsd2AZ9qg", "properties": {"id": "lKMsd2AZ9qg", "name": "Remera", "parent": "GGehit0WNxN"}, "geometry": {"type": "Point", "coordinates": [0.0, 0.0]}}, {"type": "Feature", "id": "lQAGPSzicu3", "properties": {"id": "lQAGPSzicu3", "name": "Muhazi", "parent": "TJDjWvjv7Eq"}, "geometry": {"type": "Point", "coordinates": [0.0, 0.0]}}, {"type": "Feature", "id": "lQScXEz3mEK", "properties": {"id": "lQScXEz3mEK", "name": "CYUNGO", "parent": "Uzty5ba4fGx"}, "geometry": {"type": "Point", "coordinates": [0.0, 0.0]}}, {"type": "Feature", "id": "lQYuqAwxvxQ", "properties": {"id": "lQYuqAwxvxQ", "name": "Rutunga", "parent": "GGehit0WNxN"}, "geometry": {"type": "Point", "coordinates": [0.0, 0.0]}}, {"type": "Feature", "id": "lQtMQUzXzPk", "properties": {"id": "lQtMQUzXzPk", "name": "Rwerere", "parent": "ncVHO9PKoOh"}, "geometry": {"type": "Point", "coordinates": [0.0, 0.0]}}, {"type": "Feature", "id": "lWWSg8p0lhX", "properties": {"id": "lWWSg8p0lhX", "name": "Nyamata", "parent": "hDsNksdRjyK"}, "geometry": {"type": "Point", "coordinates": [0.0, 0.0]}}, {"type": "Feature", "id": "lWtH0BWRsjB", "properties": {"id": "lWtH0BWRsjB", "name": "CYINZUZI", "parent": "vJqfrzsJe3D"}, "geometry": {"type": "Point", "coordinates": [0.0, 0.0]}}, {"type": "Feature", "id": "lbjqNdHfyGH", "properties": {"id": "lbjqNdHfyGH", "name": "Rugera", "parent": "jlu5IXTU2Pg"}, "geometry": {"type": "Point", "coordinates": [0.0, 0.0]}}, {"type": "Feature", "id": "lcK22gQzxNM", "properties": {"id": "lcK22gQzxNM", "name": "Karembo", "parent": "CotNU8eAEZD"}, "geometry": {"type": "Point", "coordinates": [0.0, 0.0]}}, {"type": "Feature", "id": "m4HmAvrxGTV", "properties": {"id": "m4HmAvrxGTV", "name": "Mushishiro", "parent": "MhdyPFz3alM"}, "geometry": {"type": "Point", "coordinates": [0.0, 0.0]}}, {"type": "Feature", "id": "m53prhq6trN", "properties": {"id": "m53prhq6trN", "name": "Shangasha", "parent": "uhjJRQ5PIKE"}, "geometry": {"type": "Point", "coordinates": [0.0, 0.0]}}, {"type": "Feature", "id": "m8H5ep6Y08r", "properties": {"id": "m8H5ep6Y08r", "name": "Mata", "parent": "w85yxpS1DaV"}, "geometry": {"type": "Point", "coordinates": [0.0, 0.0]}}, {"type": "Feature", "id": "mA3C4Xh2DQC", "properties": {"id": "mA3C4Xh2DQC", "name": "Nyamirambo", "parent": "TIYhjdOa2pb"}, "geometry": {"type": "Point", "coordinates": [0.0, 0.0]}}, {"type": "Feature", "id": "mG48SGqDtOt", "properties": {"id": "mG48SGqDtOt", "name": "Muko (Gicumbi  District)", "parent": "uhjJRQ5PIKE"}, "geometry": {"type": "Point", "coordinates": [0.0, 0.0]}}, {"type": "Feature", "id": "mQBZzbgZ9ms", "properties": {"id": "mQBZzbgZ9ms", "name": "Kabatwa", "parent": "jlu5IXTU2Pg"}, "geometry": {"type": "Point", "coordinates": [0.0, 0.0]}}, {"type": "Feature", "id": "mVjxYnw1gyk", "properties": {"id": "mVjxYnw1gyk", "name": "Kivuye", "parent": "ncVHO9PKoOh"}, "geometry": {"type": "Point", "coordinates": [0.0, 0.0]}}, {"type": "Feature", "id": "mWpeRxNFRkr", "properties": {"id": "mWpeRxNFRkr", "name": "Nyabirasi", "parent": "sFGfRP4wPqe"}, "geometry": {"type": "Point", "coordinates": [0.0, 0.0]}}, {"type": "Feature", "id": "mYe5WAfuZyt", "properties": {"id": "mYe5WAfuZyt", "name": "Kimironko", "parent": "GGehit0WNxN"}, "geometry": {"type": "Point", "coordinates": [0.0, 0.0]}}, {"type": "Feature", "id": "mjd6FW56ESK", "properties": {"id": "mjd6FW56ESK", "name": "Kinyinya", "parent": "GGehit0WNxN"}, "geometry": {"type": "Point", "coordinates": [0.0, 0.0]}}, {"type": "Feature", "id": "mtR3VofnAM9", "properties": {"id": "mtR3VofnAM9", "name": "Musasa", "parent": "sFGfRP4wPqe"}, "geometry": {"type": "Point", "coordinates": [0.0, 0.0]}}, {"type": "Feature", "id": "mvWvcwap0Eo", "properties": {"id": "mvWvcwap0Eo", "name": "Rukara", "parent": "b06Nmatvw3f"}, "geometry": {"type": "Point", "coordinates": [0.0, 0.0]}}, {"type": "Feature", "id": "n0v01HuUZTp", "properties": {"id": "n0v01HuUZTp", "name": "Gatenga", "parent": "KQWAFrokM3M"}, "geometry": {"type": "Point", "coordinates": [0.0, 0.0]}}, {"type": "Feature", "id": "n3QNptYQ9DV", "properties": {"id": "n3QNptYQ9DV", "name": "Kivu", "parent": "w85yxpS1DaV"}, "geometry": {"type": "Point", "coordinates": [0.0, 0.0]}}, {"type": "Feature", "id": "n4hr8ZNMpDR", "properties": {"id": "n4hr8ZNMpDR", "name": "Mayange", "parent": "hDsNksdRjyK"}, "geometry": {"type": "Point", "coordinates": [0.0, 0.0]}}, {"type": "Feature", "id": "n7DIvzuVAP3", "properties": {"id": "n7DIvzuVAP3", "name": "Nyakarenzo", "parent": "PE2MxtJPBEX"}, "geometry": {"type": "Point", "coordinates": [0.0, 0.0]}}, {"type": "Feature", "id": "n7Px7LUC4QB", "properties": {"id": "n7Px7LUC4QB", "name": "Rusarabuye", "parent": "ncVHO9PKoOh"}, "geometry": {"type": "Point", "coordinates": [0.0, 0.0]}}, {"type": "Feature", "id": "nFxSuA5D6YE", "properties": {"id": "nFxSuA5D6YE", "name": "Ngeruka", "parent": "hDsNksdRjyK"}, "geometry": {"type": "Point", "coordinates": [0.0, 0.0]}}, {"type": "Feature", "id": "nKUKFnu5meb", "properties": {"id": "nKUKFnu5meb", "name": "Rushashi ", "parent": "CtLpMRzBrwD"}, "geometry": {"type": "Point", "coordinates": [0.0, 0.0]}}, {"type": "Feature", "id": "nPvcWazVfQl", "properties": {"id": "nPvcWazVfQl", "name": "Murambi", "parent": "zbvFqVMWgzq"}, "geometry": {"type": "Point", "coordinates": [0.0, 0.0]}}, {"type": "Feature", "id": "nQ5Mu8IEaE9", "properties": {"id": "nQ5Mu8IEaE9", "name": "Kigali", "parent": "TIYhjdOa2pb"}, "geometry": {"type": "Point", "coordinates": [0.0, 0.0]}}, {"type": "Feature", "id": "nZHal93JyWr", "properties": {"id": "nZHal93JyWr", "name": "Jali", "parent": "GGehit0WNxN"}, "geometry": {"type": "Point", "coordinates": [0.0, 0.0]}}, {"type": "Feature", "id": "naArs9LWeZR", "properties": {"id": "naArs9LWeZR", "name": "MUHANDA", "parent": "OFUSA2nbeXd"}, "geometry": {"type": "Point", "coordinates": [0.0, 0.0]}}, {"type": "Feature", "id": "ndep578f600", "properties": {"id": "ndep578f600", "name": "Musebeya", "parent": "NbiuPoMmEoZ"}, "geometry": {"type": "Point", "coordinates": [0.0, 0.0]}}, {"type": "Feature", "id": "ni1TbdIv6D1", "properties": {"id": "ni1TbdIv6D1", "name": "TABAGWE", "parent": "x3lkZeS1aqt"}, "geometry": {"type": "Point", "coordinates": [0.0, 0.0]}}, {"type": "Feature", "id": "njRorv94beY", "properties": {"id": "njRorv94beY", "name": "Bwisige", "parent": "uhjJRQ5PIKE"}, "geometry": {"type": "Point", "coordinates": [0.0, 0.0]}}, {"type": "Feature", "id": "nlVWbxkIHLm", "properties": {"id": "nlVWbxkIHLm", "name": "Muzo ", "parent": "gedstS5izDz"}, "geometry": {"type": "Point", "coordinates": [0.0, 0.0]}}, {"type": "Feature", "id": "nr8lRQmisiB", "properties": {"id": "nr8lRQmisiB", "name": "BWIRA", "parent": "CmrpITNSnZH"}, "geometry": {"type": "Point", "coordinates": [0.0, 0.0]}}, {"type": "Feature", "id": "ntM7E4L122x", "properties": {"id": "ntM7E4L122x", "name": "Muyumbu", "parent": "TJDjWvjv7Eq"}, "geometry": {"type": "Point", "coordinates": [0.0, 0.0]}}, {"type": "Feature", "id": "nvBop2cGkvW", "properties": {"id": "nvBop2cGkvW", "name": "Ruhango (Rutsiro  District)", "parent": "sFGfRP4wPqe"}, "geometry": {"type": "Point", "coordinates": [0.0, 0.0]}}, {"type": "Feature", "id": "nvhLhNBoC8z", "properties": {"id": "nvhLhNBoC8z", "name": "Gikundamvura", "parent": "PE2MxtJPBEX"}, "geometry": {"type": "Point", "coordinates": [0.0, 0.0]}}, {"type": "Feature", "id": "o1pznhBBFtX", "properties": {"id": "o1pznhBBFtX", "name": "Nasho", "parent": "XA36D16QMFo"}, "geometry": {"type": "Point", "coordinates": [0.0, 0.0]}}, {"type": "Feature", "id": "oCHSsNnXOO2", "properties": {"id": "oCHSsNnXOO2", "name": "Kitabi", "parent": "P4eFgU1Ono1"}, "geometry": {"type": "Point", "coordinates": [0.0, 0.0]}}, {"type": "Feature", "id": "oEEhbmWR7Zk", "properties": {"id": "oEEhbmWR7Zk", "name": "Mageragere", "parent": "TIYhjdOa2pb"}, "geometry": {"type": "Point", "coordinates": [0.0, 0.0]}}, {"type": "Feature", "id": "oF0jBQBZLNb", "properties": {"id": "oF0jBQBZLNb", "name": "Kabarondo", "parent": "OmudJVpFUAM"}, "geometry": {"type": "Point", "coordinates": [0.0, 0.0]}}, {"type": "Feature", "id": "oFvY3iZZMU9", "properties": {"id": "oFvY3iZZMU9", "name": "Nyamyumba", "parent": "KMmYr3zS8A6"}, "geometry": {"type": "Point", "coordinates": [0.0, 0.0]}}, {"type": "Feature", "id": "oHrey7No7yl", "properties": {"id": "oHrey7No7yl", "name": "Buruhukiro", "parent": "NbiuPoMmEoZ"}, "geometry": {"type": "Point", "coordinates": [0.0, 0.0]}}, {"type": "Feature", "id": "oNOEcrqD9CU", "properties": {"id": "oNOEcrqD9CU", "name": "Simbi", "parent": "WZwmUL5MmQR"}, "geometry": {"type": "Point", "coordinates": [0.0, 0.0]}}, {"type": "Feature", "id": "oPgMegr8pBv", "properties": {"id": "oPgMegr8pBv", "name": "Ngarama", "parent": "nr6F3HKvHu5"}, "geometry": {"type": "Point", "coordinates": [0.0, 0.0]}}, {"type": "Feature", "id": "oeWQtVTE8ej", "properties": {"id": "oeWQtVTE8ej", "name": "Rurembo", "parent": "jlu5IXTU2Pg"}, "geometry": {"type": "Point", "coordinates": [0.0, 0.0]}}, {"type": "Feature", "id": "of2Vq9oIsfZ", "properties": {"id": "of2Vq9oIsfZ", "name": "Nyarusange", "parent": "MhdyPFz3alM"}, "geometry": {"type": "Point", "coordinates": [0.0, 0.0]}}, {"type": "Feature", "id": "oiAbfOiho08", "properties": {"id": "oiAbfOiho08", "name": "Boneza", "parent": "sFGfRP4wPqe"}, "geometry": {"type": "Point", "coordinates": [0.0, 0.0]}}, {"type": "Feature", "id": "okiQjCRUpM3", "properties": {"id": "okiQjCRUpM3", "name": "Gishubi", "parent": "OS0re4Y5ZwA"}, "geometry": {"type": "Point", "coordinates": [0.0, 0.0]}}, {"type": "Feature", "id": "onJ0XVFk1IO", "properties": {"id": "onJ0XVFk1IO", "name": "Nemba", "parent": "ncVHO9PKoOh"}, "geometry": {"type": "Point", "coordinates": [0.0, 0.0]}}, {"type": "Feature", "id": "oo7GQL7N2Pq", "properties": {"id": "oo7GQL7N2Pq", "name": "Gitesi", "parent": "YqoKpToX2RK"}, "geometry": {"type": "Point", "coordinates": [0.0, 0.0]}}, {"type": "Feature", "id": "osnxB3xVW6i", "properties": {"id": "osnxB3xVW6i", "name": "Uwinkingi", "parent": "P4eFgU1Ono1"}, "geometry": {"type": "Point", "coordinates": [0.0, 0.0]}}, {"type": "Feature", "id": "otQayYWLnDx", "properties": {"id": "otQayYWLnDx", "name": "Shyira", "parent": "jlu5IXTU2Pg"}, "geometry": {"type": "Point", "coordinates": [0.0, 0.0]}}, {"type": "Feature", "id": "p0iCVriEoxF", "properties": {"id": "p0iCVriEoxF", "name": "RUKOZO", "parent": "Uzty5ba4fGx"}, "geometry": {"type": "Point", "coordinates": [0.0, 0.0]}}, {"type": "Feature", "id": "pJ5hKosW9LI", "properties": {"id": "pJ5hKosW9LI", "name": "Karambo ", "parent": "hgg0EGoK6s1"}, "geometry": {"type": "Point", "coordinates": [0.0, 0.0]}}, {"type": "Feature", "id": "pKeNSARDHjT", "properties": {"id": "pKeNSARDHjT", "name": "Rangiro", "parent": "o1WEnRMOFGo"}, "geometry": {"type": "Point", "coordinates": [0.0, 0.0]}}, {"type": "Feature", "id": "pM2cqSqzDZ7", "properties": {"id": "pM2cqSqzDZ7", "name": "Gisozi", "parent": "GGehit0WNxN"}, "geometry": {"type": "Point", "coordinates": [0.0, 0.0]}}, {"type": "Feature", "id": "pNZNq73BXrr", "properties": {"id": "pNZNq73BXrr", "name": "Bweramana", "parent": "A0xbotZxXnk"}, "geometry": {"type": "Point", "coordinates": [0.0, 0.0]}}, {"type": "Feature", "id": "pNjF6PmUesn", "properties": {"id": "pNjF6PmUesn", "name": "Kageyo", "parent": "uhjJRQ5PIKE"}, "geometry": {"type": "Point", "coordinates": [0.0, 0.0]}}, {"type": "Feature", "id": "pOtCKCLxtkm", "properties": {"id": "pOtCKCLxtkm", "name": "Rubavu", "parent": "KMmYr3zS8A6"}, "geometry": {"type": "Point", "coordinates": [0.0, 0.0]}}, {"type": "Feature", "id": "pWhCSXUmqzb", "properties": {"id": "pWhCSXUmqzb", "name": "KIYOMBE", "parent": "JVpVNtso1j1"}, "geometry": {"type": "Point", "coordinates": [0.0, 0.0]}}, {"type": "Feature", "id": "pf7Gnt3V9E5", "properties": {"id": "pf7Gnt3V9E5", "name": "Kicukiro", "parent": "KQWAFrokM3M"}, "geometry": {"type": "Point", "coordinates": [0.0, 0.0]}}, {"type": "Feature", "id": "pfxw2X0fFq5", "properties": {"id": "pfxw2X0fFq5", "name": "Mataba ", "parent": "hgg0EGoK6s1"}, "geometry": {"type": "Point", "coordinates": [0.0, 0.0]}}, {"type": "Feature", "id": "pnvfiW7coKk", "properties": {"id": "pnvfiW7coKk", "name": "Mutenderi", "parent": "CotNU8eAEZD"}, "geometry": {"type": "Point", "coordinates": [0.0, 0.0]}}, {"type": "Feature", "id": "prIt4Mokn37", "properties": {"id": "prIt4Mokn37", "name": "Nyarugenge", "parent": "TIYhjdOa2pb"}, "geometry": {"type": "Point", "coordinates": [0.0, 0.0]}}, {"type": "Feature", "id": "puWR1Ch063w", "properties": {"id": "puWR1Ch063w", "name": "Byumba", "parent": "uhjJRQ5PIKE"}, "geometry": {"type": "Point", "coordinates": [0.0, 0.0]}}, {"type": "Feature", "id": "puYqcAH3pv6", "properties": {"id": "puYqcAH3pv6", "name": "Kabacuzi", "parent": "hruRZrf7twh"}, "geometry": {"type": "Point", "coordinates": [0.0, 0.0]}}, {"type": "Feature", "id": "q90qPRoVKPl", "properties": {"id": "q90qPRoVKPl", "name": "Kamegeri", "parent": "P4eFgU1Ono1"}, "geometry": {"type": "Point", "coordinates": [0.0, 0.0]}}, {"type": "Feature", "id": "qCrkYUqA0SE", "properties": {"id": "qCrkYUqA0SE", "name": "NGORORERO", "parent": "CmrpITNSnZH"}, "geometry": {"type": "Point", "coordinates": [0.0, 0.0]}}, {"type": "Feature", "id": "qD0Po2F0URb", "properties": {"id": "qD0Po2F0URb", "name": "Ruhango", "parent": "p3YyC2h94pE"}, "geometry": {"type": "Point", "coordinates": [0.0, 0.0]}}, {"type": "Feature", "id": "qDIC2cJlZ12", "properties": {"id": "qDIC2cJlZ12", "name": "Mururu", "parent": "YoFjBm3qOTx"}, "geometry": {"type": "Point", "coordinates": [0.0, 0.0]}}, {"type": "Feature", "id": "qEJ9EXkPUVF", "properties": {"id": "qEJ9EXkPUVF", "name": "KINIHIRA (Rulindo)", "parent": "Uzty5ba4fGx"}, "geometry": {"type": "Point", "coordinates": [0.0, 0.0]}}, {"type": "Feature", "id": "qEOqZHiYPvS", "properties": {"id": "qEOqZHiYPvS", "name": "Rusasa ", "parent": "gedstS5izDz"}, "geometry": {"type": "Point", "coordinates": [0.0, 0.0]}}, {"type": "Feature", "id": "qK0V1tuQpUV", "properties": {"id": "qK0V1tuQpUV", "name": "Kigina", "parent": "XA36D16QMFo"}, "geometry": {"type": "Point", "coordinates": [0.0, 0.0]}}, {"type": "Feature", "id": "qK4xUeSYTMX", "properties": {"id": "qK4xUeSYTMX", "name": "Rongi", "parent": "hruRZrf7twh"}, "geometry": {"type": "Point", "coordinates": [0.0, 0.0]}}, {"type": "Feature", "id": "qKFUP9Qt3kU", "properties": {"id": "qKFUP9Qt3kU", "name": "Sake", "parent": "CotNU8eAEZD"}, "geometry": {"type": "Point", "coordinates": [0.0, 0.0]}}, {"type": "Feature", "id": "qNoFgYc6u9U", "properties": {"id": "qNoFgYc6u9U", "name": "Kigembe", "parent": "mJRl6j7RPUp"}, "geometry": {"type": "Point", "coordinates": [0.0, 0.0]}}, {"type": "Feature", "id": "qSV1IcLBdfV", "properties": {"id": "qSV1IcLBdfV", "name": "Kibilizi", "parent": "hP84KHLWTST"}, "geometry": {"type": "Point", "coordinates": [0.0, 0.0]}}, {"type": "Feature", "id": "qZBARcM6gj4", "properties": {"id": "qZBARcM6gj4", "name": "Bweyeye", "parent": "YoFjBm3qOTx"}, "geometry": {"type": "Point", "coordinates": [0.0, 0.0]}}, {"type": "Feature", "id": "qbDjI1c4AzX", "properties": {"id": "qbDjI1c4AzX", "name": "NTARABANA", "parent": "vJqfrzsJe3D"}, "geometry": {"type": "Point", "coordinates": [0.0, 0.0]}}, {"type": "Feature", "id": "qeTWzbasbEy", "properties": {"id": "qeTWzbasbEy", "name": "Kabagali", "parent": "A0xbotZxXnk"}, "geometry": {"type": "Point", "coordinates": [0.0, 0.0]}}, {"type": "Feature", "id": "qfDH0WN6ICV", "properties": {"id": "qfDH0WN6ICV", "name": "Ruramba", "parent": "w85yxpS1DaV"}, "geometry": {"type": "Point", "coordinates": [0.0, 0.0]}}, {"type": "Feature", "id": "qjjLu22arqA", "properties": {"id": "qjjLu22arqA", "name": "Mushikiri", "parent": "XA36D16QMFo"}, "geometry": {"type": "Point", "coordinates": [0.0, 0.0]}}, {"type": "Feature", "id": "qq4R2oUSuKs", "properties": {"id": "qq4R2oUSuKs", "name": "Gashonga", "parent": "PE2MxtJPBEX"}, "geometry": {"type": "Point", "coordinates": [0.0, 0.0]}}, {"type": "Feature", "id": "qwRx9EZSZCm", "properties": {"id": "qwRx9EZSZCm", "name": "Cyabingo ", "parent": "hgg0EGoK6s1"}, "geometry": {"type": "Point", "coordinates": [0.0, 0.0]}}, {"type": "Feature", "id": "qyOATgh83wc", "properties": {"id": "qyOATgh83wc", "name": "Shingiro", "parent": "Gthhpk9cTe5"}, "geometry": {"type": "Point", "coordinates": [0.0, 0.0]}}, {"type": "Feature", "id": "r9nQIpfj0rj", "properties": {"id": "r9nQIpfj0rj", "name": "Murama", "parent": "OmudJVpFUAM"}, "geometry": {"type": "Point", "coordinates": [0.0, 0.0]}}, {"type": "Feature", "id": "rCofqa0jL93", "properties": {"id": "rCofqa0jL93", "name": "Ngamba", "parent": "vYchbWPRyrs"}, "geometry": {"type": "Point", "coordinates": [0.0, 0.0]}}, {"type": "Feature", "id": "rRmODHhNJPn", "properties": {"id": "rRmODHhNJPn", "name": "Rambura", "parent": "jlu5IXTU2Pg"}, "geometry": {"type": "Point", "coordinates": [0.0, 0.0]}}, {"type": "Feature", "id": "rV7ZhFtI1Ea", "properties": {"id": "rV7ZhFtI1Ea", "name": "Rusororo", "parent": "GGehit0WNxN"}, "geometry": {"type": "Point", "coordinates": [0.0, 0.0]}}, {"type": "Feature", "id": "rVCnX8yjUDl", "properties": {"id": "rVCnX8yjUDl", "name": "Kigarama (Kirehe  District)", "parent": "XA36D16QMFo"}, "geometry": {"type": "Point", "coordinates": [0.0, 0.0]}}, {"type": "Feature", "id": "rbLjdkxY23B", "properties": {"id": "rbLjdkxY23B", "name": "Nyakaliro", "parent": "TJDjWvjv7Eq"}, "geometry": {"type": "Point", "coordinates": [0.0, 0.0]}}, {"type": "Feature", "id": "rbvMQ3TCoyQ", "properties": {"id": "rbvMQ3TCoyQ", "name": "Mukura (Rutsiro  District)", "parent": "sFGfRP4wPqe"}, "geometry": {"type": "Point", "coordinates": [0.0, 0.0]}}, {"type": "Feature", "id": "rdM3O4p6UEC", "properties": {"id": "rdM3O4p6UEC", "name": "Nyanza", "parent": "mJRl6j7RPUp"}, "geometry": {"type": "Point", "coordinates": [0.0, 0.0]}}, {"type": "Feature", "id": "rdMdZAXSWR2", "properties": {"id": "rdMdZAXSWR2", "name": "Rugendabari", "parent": "MhdyPFz3alM"}, "geometry": {"type": "Point", "coordinates": [0.0, 0.0]}}, {"type": "Feature", "id": "rdnBtCmqwxR", "properties": {"id": "rdnBtCmqwxR", "name": "Bungwe", "parent": "ncVHO9PKoOh"}, "geometry": {"type": "Point", "coordinates": [0.0, 0.0]}}, {"type": "Feature", "id": "rkTV3QrWjpT", "properties": {"id": "rkTV3QrWjpT", "name": "Nkungu", "parent": "PE2MxtJPBEX"}, "geometry": {"type": "Point", "coordinates": [0.0, 0.0]}}, {"type": "Feature", "id": "rlh1dXuI6T8", "properties": {"id": "rlh1dXuI6T8", "name": "Nyabimata", "parent": "w85yxpS1DaV"}, "geometry": {"type": "Point", "coordinates": [0.0, 0.0]}}, {"type": "Feature", "id": "rmBeDs6bFrW", "properties": {"id": "rmBeDs6bFrW", "name": "Nyarubaka", "parent": "vYchbWPRyrs"}, "geometry": {"type": "Point", "coordinates": [0.0, 0.0]}}, {"type": "Feature", "id": "roynSBoq4Kx", "properties": {"id": "roynSBoq4Kx", "name": "Kimisagara", "parent": "OoEtwLxlIHt"}, "geometry": {"type": "Point", "coordinates": [0.0, 0.0]}}, {"type": "Feature", "id": "rp8ojrNmtUO", "properties": {"id": "rp8ojrNmtUO", "name": "Gatsibo", "parent": "nr6F3HKvHu5"}, "geometry": {"type": "Point", "coordinates": [0.0, 0.0]}}, {"type": "Feature", "id": "rt4ekv5UKSp", "properties": {"id": "rt4ekv5UKSp", "name": "Ruhashya", "parent": "WZwmUL5MmQR"}, "geometry": {"type": "Point", "coordinates": [0.0, 0.0]}}, {"type": "Feature", "id": "s1cEOCpZClu", "properties": {"id": "s1cEOCpZClu", "name": "Cyeru", "parent": "ncVHO9PKoOh"}, "geometry": {"type": "Point", "coordinates": [0.0, 0.0]}}, {"type": "Feature", "id": "s3P3MHWJ9xh", "properties": {"id": "s3P3MHWJ9xh", "name": "Busasamana (Rubavu District)", "parent": "KMmYr3zS8A6"}, "geometry": {"type": "Point", "coordinates": [0.0, 0.0]}}, {"type": "Feature", "id": "s6zrzTDd3Ug", "properties": {"id": "s6zrzTDd3Ug", "name": "RWIMIYAGA", "parent": "x3lkZeS1aqt"}, "geometry": {"type": "Point", "coordinates": [0.0, 0.0]}}, {"type": "Feature", "id": "s9Ph8ivLxiT", "properties": {"id": "s9Ph8ivLxiT", "name": "KISARO", "parent": "Uzty5ba4fGx"}, "geometry": {"type": "Point", "coordinates": [0.0, 0.0]}}, {"type": "Feature", "id": "sAONbSqyXCT", "properties": {"id": "sAONbSqyXCT", "name": "Remera (Musanze  District)", "parent": "Gthhpk9cTe5"}, "geometry": {"type": "Point", "coordinates": [0.0, 0.0]}}, {"type": "Feature", "id": "sC2sgA7T2eI", "properties": {"id": "sC2sgA7T2eI", "name": "Byimana", "parent": "A0xbotZxXnk"}, "geometry": {"type": "Point", "coordinates": [0.0, 0.0]}}, {"type": "Feature", "id": "sCGRP9kn7Mx", "properties": {"id": "sCGRP9kn7Mx", "name": "Mahama", "parent": "XA36D16QMFo"}, "geometry": {"type": "Point", "coordinates": [0.0, 0.0]}}, {"type": "Feature", "id": "sHQAzqPpxtQ", "properties": {"id": "sHQAzqPpxtQ", "name": "Nyamabuye", "parent": "MhdyPFz3alM"}, "geometry": {"type": "Point", "coordinates": [0.0, 0.0]}}, {"type": "Feature", "id": "sO4Mx7sBU68", "properties": {"id": "sO4Mx7sBU68", "name": "Karama (Huye)", "parent": "WZwmUL5MmQR"}, "geometry": {"type": "Point", "coordinates": [0.0, 0.0]}}, {"type": "Feature", "id": "sV9uSCgjbl2", "properties": {"id": "sV9uSCgjbl2", "name": "Karambi", "parent": "o1WEnRMOFGo"}, "geometry": {"type": "Point", "coordinates": [0.0, 0.0]}}, {"type": "Feature", "id": "sWUrChAoH25", "properties": {"id": "sWUrChAoH25", "name": "Kibirizi (Nyamagabe District)", "parent": "P4eFgU1Ono1"}, "geometry": {"type": "Point", "coordinates": [0.0, 0.0]}}, {"type": "Feature", "id": "sksYdkPSRIm", "properties": {"id": "sksYdkPSRIm", "name": "Kansi", "parent": "mJRl6j7RPUp"}, "geometry": {"type": "Point", "coordinates": [0.0, 0.0]}}, {"type": "Feature", "id": "slL5hd4qNB8", "properties": {"id": "slL5hd4qNB8", "name": "Nyamugari", "parent": "XA36D16QMFo"}, "geometry": {"type": "Point", "coordinates": [0.0, 0.0]}}, {"type": "Feature", "id": "suzLlrdNbXU", "properties": {"id": "suzLlrdNbXU", "name": "HINDIRO", "parent": "OFUSA2nbeXd"}, "geometry": {"type": "Point", "coordinates": [0.0, 0.0]}}, {"type": "Feature", "id": "syIv5rVB0Yq", "properties": {"id": "syIv5rVB0Yq", "name": "Murama (Ngoma  District)", "parent": "CotNU8eAEZD"}, "geometry": {"type": "Point", "coordinates": [0.0, 0.0]}}, {"type": "Feature", "id": "t0hjOeTDFCm", "properties": {"id": "t0hjOeTDFCm", "name": "Munini", "parent": "w85yxpS1DaV"}, "geometry": {"type": "Point", "coordinates": [0.0, 0.0]}}, {"type": "Feature", "id": "t0kI1QHIm6v", "properties": {"id": "t0kI1QHIm6v", "name": "Kiziguro", "parent": "zzX5TYBI1ON"}, "geometry": {"type": "Point", "coordinates": [0.0, 0.0]}}, {"type": "Feature", "id": "t5RmUHwTqoY", "properties": {"id": "t5RmUHwTqoY", "name": "Muhura", "parent": "zzX5TYBI1ON"}, "geometry": {"type": "Point", "coordinates": [0.0, 0.0]}}, {"type": "Feature", "id": "tFrEEZ19b9t", "properties": {"id": "tFrEEZ19b9t", "name": "Minazi ", "parent": "CtLpMRzBrwD"}, "geometry": {"type": "Point", "coordinates": [0.0, 0.0]}}, {"type": "Feature", "id": "tKDPwSBLEJ8", "properties": {"id": "tKDPwSBLEJ8", "name": "Kintobo", "parent": "jlu5IXTU2Pg"}, "geometry": {"type": "Point", "coordinates": [0.0, 0.0]}}, {"type": "Feature", "id": "tKzE9eMIz9F", "properties": {"id": "tKzE9eMIz9F", "name": "Nyundo", "parent": "KMmYr3zS8A6"}, "geometry": {"type": "Point", "coordinates": [0.0, 0.0]}}, {"type": "Feature", "id": "tRVy7BIxCLK", "properties": {"id": "tRVy7BIxCLK", "name": "Nyamiyaga", "parent": "vYchbWPRyrs"}, "geometry": {"type": "Point", "coordinates": [0.0, 0.0]}}, {"type": "Feature", "id": "tUuWFRP2VQq", "properties": {"id": "tUuWFRP2VQq", "name": "Jabana", "parent": "GGehit0WNxN"}, "geometry": {"type": "Point", "coordinates": [0.0, 0.0]}}, {"type": "Feature", "id": "ti56UzGkRbZ", "properties": {"id": "ti56UzGkRbZ", "name": "Kibumbwe", "parent": "NbiuPoMmEoZ"}, "geometry": {"type": "Point", "coordinates": [0.0, 0.0]}}, {"type": "Feature", "id": "tlvtjucj8Rr", "properties": {"id": "tlvtjucj8Rr", "name": "Nkanka", "parent": "YoFjBm3qOTx"}, "geometry": {"type": "Point", "coordinates": [0.0, 0.0]}}, {"type": "Feature", "id": "tn1xaJXBsbC", "properties": {"id": "tn1xaJXBsbC", "name": "Kageyo (Gatsibo District)", "parent": "nr6F3HKvHu5"}, "geometry": {"type": "Point", "coordinates": [0.0, 0.0]}}, {"type": "Feature", "id": "trKVyDpmfnE", "properties": {"id": "trKVyDpmfnE", "name": "Musha", "parent": "OS0re4Y5ZwA"}, "geometry": {"type": "Point", "coordinates": [0.0, 0.0]}}, {"type": "Feature", "id": "tx4YLlSnInK", "properties": {"id": "tx4YLlSnInK", "name": "Rwinkwavu", "parent": "OmudJVpFUAM"}, "geometry": {"type": "Point", "coordinates": [0.0, 0.0]}}, {"type": "Feature", "id": "u5FfjmcUBko", "properties": {"id": "u5FfjmcUBko", "name": "Rusenge", "parent": "w85yxpS1DaV"}, "geometry": {"type": "Point", "coordinates": [0.0, 0.0]}}, {"type": "Feature", "id": "u6IULrtLsw0", "properties": {"id": "u6IULrtLsw0", "name": "Ntongwe", "parent": "p3YyC2h94pE"}, "geometry": {"type": "Point", "coordinates": [0.0, 0.0]}}, {"type": "Feature", "id": "uD9XsBfBtFc", "properties": {"id": "uD9XsBfBtFc", "name": "Cyeza", "parent": "MhdyPFz3alM"}, "geometry": {"type": "Point", "coordinates": [0.0, 0.0]}}, {"type": "Feature", "id": "uFPSrAXnRiq", "properties": {"id": "uFPSrAXnRiq", "name": "Gashenyi ", "parent": "hgg0EGoK6s1"}, "geometry": {"type": "Point", "coordinates": [0.0, 0.0]}}, {"type": "Feature", "id": "uJVI5tcyT0U", "properties": {"id": "uJVI5tcyT0U", "name": "TUMBA", "parent": "Uzty5ba4fGx"}, "geometry": {"type": "Point", "coordinates": [0.0, 0.0]}}, {"type": "Feature", "id": "uM614oCFXu2", "properties": {"id": "uM614oCFXu2", "name": "Kanyinya", "parent": "OoEtwLxlIHt"}, "geometry": {"type": "Point", "coordinates": [0.0, 0.0]}}, {"type": "Feature", "id": "ubhZBPhJitg", "properties": {"id": "ubhZBPhJitg", "name": "Kinyababa", "parent": "ncVHO9PKoOh"}, "geometry": {"type": "Point", "coordinates": [0.0, 0.0]}}, {"type": "Feature", "id": "ujfNMAfWJRS", "properties": {"id": "ujfNMAfWJRS", "name": "KAVUMU", "parent": "OFUSA2nbeXd"}, "geometry": {"type": "Point", "coordinates": [0.0, 0.0]}}, {"type": "Feature", "id": "uoPjt1owoe8", "properties": {"id": "uoPjt1owoe8", "name": "Gishyita", "parent": "WjkCV9L9ecK"}, "geometry": {"type": "Point", "coordinates": [0.0, 0.0]}}, {"type": "Feature", "id": "uoxBug0TBqQ", "properties": {"id": "uoxBug0TBqQ", "name": "Kivumu", "parent": "sFGfRP4wPqe"}, "geometry": {"type": "Point", "coordinates": [0.0, 0.0]}}, {"type": "Feature", "id": "usFlkS7j5yT", "properties": {"id": "usFlkS7j5yT", "name": "Muko", "parent": "Gthhpk9cTe5"}, "geometry": {"type": "Point", "coordinates": [0.0, 0.0]}}, {"type": "Feature", "id": "uyvCG2JKQZH", "properties": {"id": "uyvCG2JKQZH", "name": "Ruhuha", "parent": "hDsNksdRjyK"}, "geometry": {"type": "Point", "coordinates": [0.0, 0.0]}}, {"type": "Feature", "id": "uz71KdlmXug", "properties": {"id": "uz71KdlmXug", "name": "MBOGO", "parent": "vJqfrzsJe3D"}, "geometry": {"type": "Point", "coordinates": [0.0, 0.0]}}, {"type": "Feature", "id": "uzyFjrAysFn", "properties": {"id": "uzyFjrAysFn", "name": "Rweru", "parent": "hDsNksdRjyK"}, "geometry": {"type": "Point", "coordinates": [0.0, 0.0]}}, {"type": "Feature", "id": "v1npeoELsdP", "properties": {"id": "v1npeoELsdP", "name": "Kigoma", "parent": "hP84KHLWTST"}, "geometry": {"type": "Point", "coordinates": [0.0, 0.0]}}, {"type": "Feature", "id": "v1qbdnEI5TA", "properties": {"id": "v1qbdnEI5TA", "name": "Gishamvu", "parent": "WZwmUL5MmQR"}, "geometry": {"type": "Point", "coordinates": [0.0, 0.0]}}, {"type": "Feature", "id": "v25CAeR44jA", "properties": {"id": "v25CAeR44jA", "name": "Murundi", "parent": "zbvFqVMWgzq"}, "geometry": {"type": "Point", "coordinates": [0.0, 0.0]}}, {"type": "Feature", "id": "v4N8fBfOoQl", "properties": {"id": "v4N8fBfOoQl", "name": "Kibungo", "parent": "CotNU8eAEZD"}, "geometry": {"type": "Point", "coordinates": [0.0, 0.0]}}, {"type": "Feature", "id": "v7Sthbstw1h", "properties": {"id": "v7Sthbstw1h", "name": "Nkotsi", "parent": "Gthhpk9cTe5"}, "geometry": {"type": "Point", "coordinates": [0.0, 0.0]}}, {"type": "Feature", "id": "vB2dXYAvti6", "properties": {"id": "vB2dXYAvti6", "name": "Munyiginya", "parent": "TJDjWvjv7Eq"}, "geometry": {"type": "Point", "coordinates": [0.0, 0.0]}}, {"type": "Feature", "id": "vINE9OQQUfE", "properties": {"id": "vINE9OQQUfE", "name": "Rukira", "parent": "CotNU8eAEZD"}, "geometry": {"type": "Point", "coordinates": [0.0, 0.0]}}, {"type": "Feature", "id": "vRH7K6eRZ5k", "properties": {"id": "vRH7K6eRZ5k", "name": "SOVU", "parent": "OFUSA2nbeXd"}, "geometry": {"type": "Point", "coordinates": [0.0, 0.0]}}, {"type": "Feature", "id": "vS55GovQ9rB", "properties": {"id": "vS55GovQ9rB", "name": "Kabarore", "parent": "zzX5TYBI1ON"}, "geometry": {"type": "Point", "coordinates": [0.0, 0.0]}}, {"type": "Feature", "id": "vbskHa5NSCh", "properties": {"id": "vbskHa5NSCh", "name": "Janja ", "parent": "gedstS5izDz"}, "geometry": {"type": "Point", "coordinates": [0.0, 0.0]}}, {"type": "Feature", "id": "vk3jF5VGaZI", "properties": {"id": "vk3jF5VGaZI", "name": "Niboye", "parent": "KQWAFrokM3M"}, "geometry": {"type": "Point", "coordinates": [0.0, 0.0]}}, {"type": "Feature", "id": "vrnQszrqYjY", "properties": {"id": "vrnQszrqYjY", "name": "Gahini", "parent": "b06Nmatvw3f"}, "geometry": {"type": "Point", "coordinates": [0.0, 0.0]}}, {"type": "Feature", "id": "wEFowwV0G0h", "properties": {"id": "wEFowwV0G0h", "name": "Cyanzarwe", "parent": "KMmYr3zS8A6"}, "geometry": {"type": "Point", "coordinates": [0.0, 0.0]}}, {"type": "Feature", "id": "wEkzviheOdr", "properties": {"id": "wEkzviheOdr", "name": "Rugarika", "parent": "vYchbWPRyrs"}, "geometry": {"type": "Point", "coordinates": [0.0, 0.0]}}, {"type": "Feature", "id": "wNjJUBRrzu3", "properties": {"id": "wNjJUBRrzu3", "name": "Kibeho", "parent": "w85yxpS1DaV"}, "geometry": {"type": "Point", "coordinates": [0.0, 0.0]}}, {"type": "Feature", "id": "wV8YzwFJjus", "properties": {"id": "wV8YzwFJjus", "name": "Kanzenze", "parent": "KMmYr3zS8A6"}, "geometry": {"type": "Point", "coordinates": [0.0, 0.0]}}, {"type": "Feature", "id": "wVcyXF8POcQ", "properties": {"id": "wVcyXF8POcQ", "name": "Bwishyura", "parent": "YqoKpToX2RK"}, "geometry": {"type": "Point", "coordinates": [0.0, 0.0]}}, {"type": "Feature", "id": "waNSKNzhQjv", "properties": {"id": "waNSKNzhQjv", "name": "Ruvune", "parent": "uhjJRQ5PIKE"}, "geometry": {"type": "Point", "coordinates": [0.0, 0.0]}}, {"type": "Feature", "id": "whNKnSDFdTU", "properties": {"id": "whNKnSDFdTU", "name": "Mushonyi", "parent": "sFGfRP4wPqe"}, "geometry": {"type": "Point", "coordinates": [0.0, 0.0]}}, {"type": "Feature", "id": "wjTfGhydjrn", "properties": {"id": "wjTfGhydjrn", "name": "Mareba", "parent": "hDsNksdRjyK"}, "geometry": {"type": "Point", "coordinates": [0.0, 0.0]}}, {"type": "Feature", "id": "wkP40OoxC3g", "properties": {"id": "wkP40OoxC3g", "name": "Nyabinoni", "parent": "hruRZrf7twh"}, "geometry": {"type": "Point", "coordinates": [0.0, 0.0]}}, {"type": "Feature", "id": "wlTNvmtOf7u", "properties": {"id": "wlTNvmtOf7u", "name": "Karago", "parent": "jlu5IXTU2Pg"}, "geometry": {"type": "Point", "coordinates": [0.0, 0.0]}}, {"type": "Feature", "id": "wnVYL8MRovT", "properties": {"id": "wnVYL8MRovT", "name": "Mukarange (Kayonza District)", "parent": "b06Nmatvw3f"}, "geometry": {"type": "Point", "coordinates": [0.0, 0.0]}}, {"type": "Feature", "id": "woIGpExwN23", "properties": {"id": "woIGpExwN23", "name": "KAGEYO", "parent": "CmrpITNSnZH"}, "geometry": {"type": "Point", "coordinates": [0.0, 0.0]}}, {"type": "Feature", "id": "wp1Q5Mn6cCn", "properties": {"id": "wp1Q5Mn6cCn", "name": "Rugengabari", "parent": "ncVHO9PKoOh"}, "geometry": {"type": "Point", "coordinates": [0.0, 0.0]}}, {"type": "Feature", "id": "wt4b8SM4cEN", "properties": {"id": "wt4b8SM4cEN", "name": "Nzahaha", "parent": "PE2MxtJPBEX"}, "geometry": {"type": "Point", "coordinates": [0.0, 0.0]}}, {"type": "Feature", "id": "wwweTFZAVTE", "properties": {"id": "wwweTFZAVTE", "name": "Rwamiko", "parent": "uhjJRQ5PIKE"}, "geometry": {"type": "Point", "coordinates": [0.0, 0.0]}}, {"type": "Feature", "id": "wxp06f3pUpr", "properties": {"id": "wxp06f3pUpr", "name": "Gahengeri", "parent": "TJDjWvjv7Eq"}, "geometry": {"type": "Point", "coordinates": [0.0, 0.0]}}, {"type": "Feature", "id": "wz4d2es3Ifl", "properties": {"id": "wz4d2es3Ifl", "name": "Ngera", "parent": "w85yxpS1DaV"}, "geometry": {"type": "Point", "coordinates": [0.0, 0.0]}}, {"type": "Feature", "id": "wzAkJGGX3jI", "properties": {"id": "wzAkJGGX3jI", "name": "RUSIGA", "parent": "vJqfrzsJe3D"}, "geometry": {"type": "Point", "coordinates": [0.0, 0.0]}}, {"type": "Feature", "id": "x4TXRgfQazT", "properties": {"id": "x4TXRgfQazT", "name": "Ruli ", "parent": "CtLpMRzBrwD"}, "geometry": {"type": "Point", "coordinates": [0.0, 0.0]}}, {"type": "Feature", "id": "xHe6AHOiQWp", "properties": {"id": "xHe6AHOiQWp", "name": "Gashora", "parent": "hDsNksdRjyK"}, "geometry": {"type": "Point", "coordinates": [0.0, 0.0]}}, {"type": "Feature", "id": "xO6H8pISuYU", "properties": {"id": "xO6H8pISuYU", "name": "Remera (Gatsibo District)", "parent": "zzX5TYBI1ON"}, "geometry": {"type": "Point", "coordinates": [0.0, 0.0]}}, {"type": "Feature", "id": "xQgPke6Fg5k", "properties": {"id": "xQgPke6Fg5k", "name": "Mamba", "parent": "OS0re4Y5ZwA"}, "geometry": {"type": "Point", "coordinates": [0.0, 0.0]}}, {"type": "Feature", "id": "xQvl8ORDZn0", "properties": {"id": "xQvl8ORDZn0", "name": "BASE", "parent": "Uzty5ba4fGx"}, "geometry": {"type": "Point", "coordinates": [0.0, 0.0]}}, {"type": "Feature", "id": "xRmoYVK34KD", "properties": {"id": "xRmoYVK34KD", "name": "Gikondo", "parent": "KQWAFrokM3M"}, "geometry": {"type": "Point", "coordinates": [0.0, 0.0]}}, {"type": "Feature", "id": "xbMquN7sLIJ", "properties": {"id": "xbMquN7sLIJ", "name": "Ririma", "parent": "hDsNksdRjyK"}, "geometry": {"type": "Point", "coordinates": [0.0, 0.0]}}, {"type": "Feature", "id": "xbumUCPARsT", "properties": {"id": "xbumUCPARsT", "name": "Nyarugenge (Bugesera District)", "parent": "hDsNksdRjyK"}, "geometry": {"type": "Point", "coordinates": [0.0, 0.0]}}, {"type": "Feature", "id": "xeE4CCBqUwu", "properties": {"id": "xeE4CCBqUwu", "name": "Nyange (Musanze)", "parent": "Gthhpk9cTe5"}, "geometry": {"type": "Point", "coordinates": [0.0, 0.0]}}, {"type": "Feature", "id": "xmrMs4DTslE", "properties": {"id": "xmrMs4DTslE", "name": "Kigeyo", "parent": "sFGfRP4wPqe"}, "geometry": {"type": "Point", "coordinates": [0.0, 0.0]}}, {"type": "Feature", "id": "xutEHehNGOF", "properties": {"id": "xutEHehNGOF", "name": "Muyira", "parent": "hP84KHLWTST"}, "geometry": {"type": "Point", "coordinates": [0.0, 0.0]}}, {"type": "Feature", "id": "xvxGBN19J5c", "properties": {"id": "xvxGBN19J5c", "name": "Mpanga", "parent": "XA36D16QMFo"}, "geometry": {"type": "Point", "coordinates": [0.0, 0.0]}}, {"type": "Feature", "id": "y3M85JYOm0d", "properties": {"id": "y3M85JYOm0d", "name": "Rubaya", "parent": "uhjJRQ5PIKE"}, "geometry": {"type": "Point", "coordinates": [0.0, 0.0]}}, {"type": "Feature", "id": "y6wL7il1PPC", "properties": {"id": "y6wL7il1PPC", "name": "Mbazi", "parent": "WZwmUL5MmQR"}, "geometry": {"type": "Point", "coordinates": [0.0, 0.0]}}, {"type": "Feature", "id": "y6ynK81kB6P", "properties": {"id": "y6ynK81kB6P", "name": "Kinazi", "parent": "WZwmUL5MmQR"}, "geometry": {"type": "Point", "coordinates": [0.0, 0.0]}}, {"type": "Feature", "id": "yAuwjiu3Bla", "properties": {"id": "yAuwjiu3Bla", "name": "Kirimbi", "parent": "o1WEnRMOFGo"}, "geometry": {"type": "Point", "coordinates": [0.0, 0.0]}}, {"type": "Feature", "id": "yHu4qxgSgcI", "properties": {"id": "yHu4qxgSgcI", "name": "Nyarugunga", "parent": "KQWAFrokM3M"}, "geometry": {"type": "Point", "coordinates": [0.0, 0.0]}}, {"type": "Feature", "id": "yIQgHzlOTJ0", "properties": {"id": "yIQgHzlOTJ0", "name": "Ndora", "parent": "mJRl6j7RPUp"}, "geometry": {"type": "Point", "coordinates": [0.0, 0.0]}}, {"type": "Feature", "id": "yOQhTgYzvyY", "properties": {"id": "yOQhTgYzvyY", "name": "Gikomero", "parent": "GGehit0WNxN"}, "geometry": {"type": "Point", "coordinates": [0.0, 0.0]}}, {"type": "Feature", "id": "yRx1pRIEpnZ", "properties": {"id": "yRx1pRIEpnZ", "name": "Karengera", "parent": "TiRTUBf0XSn"}, "geometry": {"type": "Point", "coordinates": [0.0, 0.0]}}, {"type": "Feature", "id": "yZQg6n4B5ji", "properties": {"id": "yZQg6n4B5ji", "name": "Ntarama", "parent": "hDsNksdRjyK"}, "geometry": {"type": "Point", "coordinates": [0.0, 0.0]}}, {"type": "Feature", "id": "yaUfTPwKXiM", "properties": {"id": "yaUfTPwKXiM", "name": "Busogo", "parent": "Gthhpk9cTe5"}, "geometry": {"type": "Point", "coordinates": [0.0, 0.0]}}, {"type": "Feature", "id": "ycDkHTtmLsS", "properties": {"id": "ycDkHTtmLsS", "name": "Miyove", "parent": "uhjJRQ5PIKE"}, "geometry": {"type": "Point", "coordinates": [0.0, 0.0]}}, {"type": "Feature", "id": "yfeWdN1MCYR", "properties": {"id": "yfeWdN1MCYR", "name": "Bigogwe", "parent": "jlu5IXTU2Pg"}, "geometry": {"type": "Point", "coordinates": [0.0, 0.0]}}, {"type": "Feature", "id": "yuC4ByotStU", "properties": {"id": "yuC4ByotStU", "name": "MASORO", "parent": "vJqfrzsJe3D"}, "geometry": {"type": "Point", "coordinates": [0.0, 0.0]}}, {"type": "Feature", "id": "z4nfOTlSR6F", "properties": {"id": "z4nfOTlSR6F", "name": "Runda", "parent": "vYchbWPRyrs"}, "geometry": {"type": "Point", "coordinates": [0.0, 0.0]}}, {"type": "Feature", "id": "z5LxmSfIc0W", "properties": {"id": "z5LxmSfIc0W", "name": "Cyato", "parent": "o1WEnRMOFGo"}, "geometry": {"type": "Point", "coordinates": [0.0, 0.0]}}, {"type": "Feature", "id": "zDchRTEEZPK", "properties": {"id": "zDchRTEEZPK", "name": "Masaka", "parent": "KQWAFrokM3M"}, "geometry": {"type": "Point", "coordinates": [0.0, 0.0]}}, {"type": "Feature", "id": "zGYjDr81Gqt", "properties": {"id": "zGYjDr81Gqt", "name": "Rugarama", "parent": "ncVHO9PKoOh"}, "geometry": {"type": "Point", "coordinates": [0.0, 0.0]}}, {"type": "Feature", "id": "zHaPqnoDXYU", "properties": {"id": "zHaPqnoDXYU", "name": "KABAYA", "parent": "OFUSA2nbeXd"}, "geometry": {"type": "Point", "coordinates": [0.0, 0.0]}}, {"type": "Feature", "id": "zIGMDXRIPPH", "properties": {"id": "zIGMDXRIPPH", "name": "Mushubi", "parent": "NbiuPoMmEoZ"}, "geometry": {"type": "Point", "coordinates": [0.0, 0.0]}}, {"type": "Feature", "id": "zLcLwAFC2Ow", "properties": {"id": "zLcLwAFC2Ow", "name": "Nyagatare", "parent": "x3lkZeS1aqt"}, "geometry": {"type": "Point", "coordinates": [0.0, 0.0]}}, {"type": "Feature", "id": "zOpFAqs4kcD", "properties": {"id": "zOpFAqs4kcD", "name": "Butare", "parent": "PE2MxtJPBEX"}, "geometry": {"type": "Point", "coordinates": [0.0, 0.0]}}, {"type": "Feature", "id": "zPXKfKa0I0P", "properties": {"id": "zPXKfKa0I0P", "name": "Mushubati", "parent": "sFGfRP4wPqe"}, "geometry": {"type": "Point", "coordinates": [0.0, 0.0]}}, {"type": "Feature", "id": "zfWF2YNMopg", "properties": {"id": "zfWF2YNMopg", "name": "Kiramuruzi", "parent": "zzX5TYBI1ON"}, "geometry": {"type": "Point", "coordinates": [0.0, 0.0]}}, {"type": "Feature", "id": "zkJ2TRTx0YJ", "properties": {"id": "zkJ2TRTx0YJ", "name": "Bushekeri", "parent": "TiRTUBf0XSn"}, "geometry": {"type": "Point", "coordinates": [0.0, 0.0]}}, {"type": "Feature", "id": "zvOOBIVg8fp", "properties": {"id": "zvOOBIVg8fp", "name": "Munyaga", "parent": "TJDjWvjv7Eq"}, "geometry": {"type": "Point", "coordinates": [0.0, 0.0]}}, {"type": "Feature", "id": "zvS1hbxSh8d", "properties": {"id": "zvS1hbxSh8d", "name": "Musanze", "parent": "Gthhpk9cTe5"}, "geometry": {"type": "Point", "coordinates": [0.0, 0.0]}}, {"type": "Feature", "id": "zxTBOD9WXPR", "properties": {"id": "zxTBOD9WXPR", "name": "Kigarama", "parent": "KQWAFrokM3M"}, "geometry": {"type": "Point", "coordinates": [0.0, 0.0]}}, {"type": "Feature", "id": "zxceHRhKrH9", "properties": {"id": "zxceHRhKrH9", "name": "BUREGA", "parent": "vJqfrzsJe3D"}, "geometry": {"type": "Point", "coordinates": [0.0, 0.0]}}]}